{"type": "FeatureCollection", "features": [{"type": "Feature", "geometry": {"type": "Point", "coordinates": [-3.4388679076153488, 39.88325725]}, "properties": {"id": "lca:place/spain", "title": "Spain", "occurrences": 5, "first_year": 1445, "last_year": 1555, "variants": "Ispania; Hispania; Spayne", "volumes": ["II-9", "IV-13", "IV-14", "IV-17", "IV-2", "IV-20", "IV-24"], "match": "wd:Q29", "has_outline": true}}, {"type": "Feature", "geometry": {"type": "Point", "coordinates": [21.25759218417567, 54.51978415]}, "properties": {"id": "lca:place/prussia", "title": "Prussia", "occurrences": 12, "first_year": 1431, "last_year": 1440, "variants": "Sprucie; Prucie; Pruciam", "volumes": ["II-4", "II-5", "II-6", "II-7"], "match": "wd:Q27306", "has_outline": true}}, {"type": "Feature", "geometry": {"type": "Point", "coordinates": [-8.31007949865847, 39.55372735]}, "properties": {"id": "lca:place/portugal", "title": "Portugal", "occurrences": 16, "first_year": 1431, "last_year": 1547, "variants": "Portugalia; Portugalie; Portugaliam; Portingalia; de Portyngal; Portingal; Portyngale; Portygal; Portingalle; Portugalis; Portygale", "volumes": ["II-4", "II-5", "II-6", "II-7", "II-8", "II-9", "III-5", "IV-13", "IV-19", "IV-20"], "match": "ohm:r2905980", "has_outline": true}}, {"type": "Feature", "geometry": {"type": "Point", "coordinates": [-0.2746320806427165, 49.218024650000004]}, "properties": {"id": "lca:place/normandy", "title": "Normandy", "occurrences": 2, "first_year": 1434, "last_year": 1446, "variants": "Normannie; Normandiam", "volumes": ["II-5", "II-6", "II-8", "II-9"], "match": "wd:Q18677875", "has_outline": true}}, {"type": "Feature", "geometry": {"type": "Point", "coordinates": [-8.024440012516825, 42.80643875]}, "properties": {"id": "lca:place/galicia", "title": "Galicia", "occurrences": 2, "first_year": 1533, "last_year": 1535, "variants": "", "volumes": ["IV-17"], "match": "ohm:r2803708", "has_outline": true}}, {"type": "Feature", "geometry": {"type": "Point", "coordinates": [4.8375821139747694, 52.550045]}, "properties": {"id": "lca:place/holland", "title": "Holland", "occurrences": 32, "first_year": 1431, "last_year": 1485, "variants": "Holandie; Hollandie; Holandia; Housdowne in Holandia; Holand", "volumes": ["II-4", "II-5", "II-6", "II-7", "II-9", "III-2", "III-5", "III-6"], "match": "ohm:r2840501", "has_outline": true}}, {"type": "Feature", "geometry": {"type": "Point", "coordinates": [-2.8438487752790538, 43.250171800000004]}, "properties": {"id": "lca:place/biscay", "title": "Biscay", "occurrences": 8, "first_year": 1495, "last_year": 1545, "variants": "Byscoy; Biskaya; Byskay; Byscay; Biske; Biscoy", "volumes": ["IV-11", "IV-15", "IV-18", "IV-19", "IV-4", "IV-6"], "match": "wd:Q93366", "has_outline": true}}, {"type": "Feature", "geometry": {"type": "Point", "coordinates": [3.807621168540894, 51.5832535]}, "properties": {"id": "lca:place/zealand", "title": "Zealand", "occurrences": 17, "first_year": 1434, "last_year": 1548, "variants": "Selandia; Zelandie; Zelandiam; Zelandia; Sealand", "volumes": ["II-5", "II-6", "II-7", "IV-21"], "match": "tgn:7003635", "has_outline": true}}, {"type": "Feature", "geometry": {"type": "Point", "coordinates": [-2.130164819177492, 49.22207075]}, "properties": {"id": "lca:place/jersey", "title": "Jersey", "occurrences": 3, "first_year": 1519, "last_year": 1531, "variants": "Jerssey", "volumes": ["IV-13", "IV-15"], "match": "ohm:w2957449", "has_outline": true}}, {"type": "Feature", "geometry": {"type": "Point", "coordinates": [-2.5077374883801085, 49.453950750000004]}, "properties": {"id": "lca:place/guernsey", "title": "Guernsey", "occurrences": 2, "first_year": 1519, "last_year": 1520, "variants": "Garnesey; Gernsey", "volumes": ["IV-13"], "match": "ohm:r2828270", "has_outline": true}}, {"type": "Feature", "geometry": {"type": "Point", "coordinates": [-4.565, 48.59609]}, "properties": {"id": "lca:place/abbaragh", "title": "Abbaragh", "occurrences": 1, "first_year": 1519, "last_year": 1520, "variants": "Abarragh", "volumes": ["IV-13"], "match": "gn:3011078", "has_outline": false}}, {"type": "Feature", "geometry": {"type": "Point", "coordinates": [-2.092603, 57.148249]}, "properties": {"id": "lca:place/aberdeen", "title": "Aberdeen", "occurrences": 4, "first_year": 1439, "last_year": 1440, "variants": "Aburden in Scocia; Aburdyn in Scocia; Aburden; Abirden", "volumes": ["II-7"], "match": "ohm:n2095901903", "has_outline": false}}, {"type": "Feature", "geometry": {"type": "Point", "coordinates": [1.594249, 52.147453]}, "properties": {"id": "lca:place/aldeburgh", "title": "Aldeburgh", "occurrences": 52, "first_year": 1487, "last_year": 1548, "variants": "Alborowgh; Alburgh; Aldburgh; Alborowe; Alborough; Albury; Alborow", "volumes": ["IV-1", "IV-10", "IV-12", "IV-13", "IV-14", "IV-15", "IV-17", "IV-19", "IV-20", "IV-21", "IV-3", "IV-4"], "match": "iv:IV:IV1680-004-36", "has_outline": false}}, {"type": "Feature", "geometry": {"type": "Point", "coordinates": [-7.935278, 37.014444]}, "properties": {"id": "lca:place/algarve", "title": "Algarve", "occurrences": 2, "first_year": 1531, "last_year": 1533, "variants": "Algir; Algare", "volumes": ["IV-16"], "match": "wd:Q26831", "has_outline": false}}, {"type": "Feature", "geometry": {"type": "Point", "coordinates": [4.74861, 52.63167]}, "properties": {"id": "lca:place/alkmaar", "title": "Alkmaar", "occurrences": 1, "first_year": 1465, "last_year": 1472, "variants": "Alkemer", "volumes": ["III-2"], "match": "gn:2759899", "has_outline": false}}, {"type": "Feature", "geometry": {"type": "Point", "coordinates": [-1.58333, 55.33333]}, "properties": {"id": "lca:place/amble", "title": "Amble", "occurrences": 1, "first_year": 1525, "last_year": 1531, "variants": "", "volumes": ["IV-15"], "match": "gn:2657362", "has_outline": false}}, {"type": "Feature", "geometry": {"type": "Point", "coordinates": [4.897314, 52.374372]}, "properties": {"id": "lca:place/amsterdam", "title": "Amsterdam", "occurrences": 2, "first_year": 1450, "last_year": 1559, "variants": "Hansterdam", "volumes": ["II-11", "II-12", "IV-25"], "match": "ohm:n2093449857", "has_outline": false}}, {"type": "Feature", "geometry": {"type": "Point", "coordinates": [4.400278, 51.220556]}, "properties": {"id": "lca:place/antwerp", "title": "Antwerp", "occurrences": 91, "first_year": 1428, "last_year": 1559, "variants": "Andewarp; Andewarpe; Andwarpe; Andwarp; Andewerp; Andwarpia; Andwerp; Anwarpe; Handewarpe; Andwarpp; Andward; And(e)warp; Andewerpe; Andwarp(e); Andwerpe; Andworp; Antwarpe; Anwarp", "volumes": ["II-10", "II-11", "II-12", "II-3", "II-4", "II-6", "II-7", "II-8", "II-9", "III-1", "III-2", "III-5", "III-6", "IV-10", "IV-12", "IV-14", "IV-15", "IV-16", "IV-17", "IV-18", "IV-19", "IV-20", "IV-21", "IV-25"], "match": "wd:Q31467408", "has_outline": false}}, {"type": "Feature", "geometry": {"type": "Point", "coordinates": [0.0, 44.6]}, "properties": {"id": "lca:place/aquitaine", "title": "Aquitaine", "occurrences": 1, "first_year": 1434, "last_year": 1438, "variants": "Aquitaniam", "volumes": ["II-5"], "match": "wd:Q1179", "has_outline": false}}, {"type": "Feature", "geometry": {"type": "Point", "coordinates": [3.675, 51.50167]}, "properties": {"id": "lca:place/arnemuiden", "title": "Arnemuiden", "occurrences": 102, "first_year": 1434, "last_year": 1535, "variants": "Ermothe; Ermoth; Ermuth; Arnemouth; Arnemowth; Ernemouth; Arnemoth; Ernemoth; Ernemeuth; Ermouth; Ernemouthe; Armewth; Armewe; Armew; Armewthe; Armuthe; Arramew; Arnemo(u)th", "volumes": ["II-10", "II-11", "II-5", "II-6", "II-7", "II-8", "II-9", "III-2", "III-5", "III-6", "IV-10", "IV-12", "IV-17"], "match": "gn:2759664", "has_outline": false}}, {"type": "Feature", "geometry": {"type": "Point", "coordinates": [-0.556522, 50.855383]}, "properties": {"id": "lca:place/arundel", "title": "Arundel", "occurrences": 1, "first_year": 1553, "last_year": 1555, "variants": "Arundell", "volumes": ["IV-24"], "match": "gn:2656997", "has_outline": false}}, {"type": "Feature", "geometry": {"type": "Point", "coordinates": [1.2761, 51.2774]}, "properties": {"id": "lca:place/ash", "title": "Ash", "occurrences": 2, "first_year": 1445, "last_year": 1472, "variants": "Asshe", "volumes": ["II-9", "III-2"], "match": "wd:Q4804328", "has_outline": false}}, {"type": "Feature", "geometry": {"type": "Point", "coordinates": [-4.53838, 48.0164]}, "properties": {"id": "lca:place/audierne", "title": "Audierne", "occurrences": 4, "first_year": 1519, "last_year": 1533, "variants": "Odierne; Oldierne", "volumes": ["IV-13", "IV-16"], "match": "gn:3036247", "has_outline": false}}, {"type": "Feature", "geometry": {"type": "Point", "coordinates": [-2.617881, 51.599111]}, "properties": {"id": "lca:place/awst", "title": "Awst", "occurrences": 1, "first_year": 1531, "last_year": 1533, "variants": "", "volumes": ["IV-16"], "match": "wd:Q660017", "has_outline": false}}, {"type": "Feature", "geometry": {"type": "Point", "coordinates": [0.477543, 51.303891]}, "properties": {"id": "lca:place/aylesford", "title": "Aylesford", "occurrences": 36, "first_year": 1507, "last_year": 1555, "variants": "Aylesforth; Ailesford; Alisforth; Aylesforde; Ayllesford; Alesford; Ailesforth", "volumes": ["IV-10", "IV-12", "IV-14", "IV-15", "IV-18", "IV-19", "IV-21", "IV-24", "IV-8", "IV-9"], "match": "iv:IV:IV1680-018-34", "has_outline": false}}, {"type": "Feature", "geometry": {"type": "Point", "coordinates": [0.074856, 51.536543]}, "properties": {"id": "lca:place/barking", "title": "Barking", "occurrences": 32, "first_year": 1490, "last_year": 1548, "variants": "Berkyng; Barkyng", "volumes": ["IV-10", "IV-11", "IV-12", "IV-14", "IV-16", "IV-18", "IV-19", "IV-2", "IV-20", "IV-21", "IV-3", "IV-4", "IV-8", "IV-9"], "match": "iv:IV:IV1680-022-07", "has_outline": false}}, {"type": "Feature", "geometry": {"type": "Point", "coordinates": [0.783316, 51.566837]}, "properties": {"id": "lca:place/barling", "title": "Barling", "occurrences": 1, "first_year": 1493, "last_year": 1495, "variants": "Berlyng", "volumes": ["IV-3"], "match": "gn:2656319", "has_outline": false}}, {"type": "Feature", "geometry": {"type": "Point", "coordinates": [-2.1792, 47.0673]}, "properties": {"id": "lca:place/bay-of-bourgneuf", "title": "Bay of Bourgneuf", "occurrences": 6, "first_year": 1434, "last_year": 1514, "variants": "le Baye; le Bay; de Baye; Bay; Baye of Bourgneuf; Bayeof Bourgneuf; Bourgneuf", "volumes": ["II-5", "II-6", "II-7", "IV-11"], "match": "gn:3030972", "has_outline": false}}, {"type": "Feature", "geometry": {"type": "Point", "coordinates": [-1.476389, 43.4925]}, "properties": {"id": "lca:place/bayonne", "title": "Bayonne", "occurrences": 26, "first_year": 1431, "last_year": 1450, "variants": "Bayon; Bayona; Bajona; Bajonna; Bajonam; Bajone", "volumes": ["II-10", "II-4", "II-5", "II-6", "II-7", "II-9"], "match": "wd:Q134674", "has_outline": false}}, {"type": "Feature", "geometry": {"type": "Point", "coordinates": [1.07031, 51.99001]}, "properties": {"id": "lca:place/bentley", "title": "Bentley", "occurrences": 2, "first_year": 1456, "last_year": 1465, "variants": "", "volumes": ["II-12", "III-1"], "match": "gn:2655884", "has_outline": false}}, {"type": "Feature", "geometry": {"type": "Point", "coordinates": [4.287098, 51.4945]}, "properties": {"id": "lca:place/bergen-op-zoom", "title": "Bergen-op-Zoom", "occurrences": 38, "first_year": 1438, "last_year": 1485, "variants": "Barowe; Barowgh; Barough; Borough; Barow; Berwe up Sond; Bergh", "volumes": ["II-10", "II-11", "II-12", "II-6", "II-7", "II-9", "III-2", "III-5", "III-6"], "match": "gn:2759145", "has_outline": false}}, {"type": "Feature", "geometry": {"type": "Point", "coordinates": [-2.722795, 43.420339]}, "properties": {"id": "lca:place/bermeo", "title": "Bermeo", "occurrences": 4, "first_year": 1516, "last_year": 1545, "variants": "Barmeo; Avermew; Vermew; Vermeo; Barmewe", "volumes": ["IV-12", "IV-13", "IV-14", "IV-19"], "match": "ohm:n2124121941", "has_outline": false}}, {"type": "Feature", "geometry": {"type": "Point", "coordinates": [3.688412, 51.329304]}, "properties": {"id": "lca:place/biervliet", "title": "Biervliet", "occurrences": 1, "first_year": 1487, "last_year": 1490, "variants": "Bereflete", "volumes": ["IV-1"], "match": "ohm:n2153012575", "has_outline": false}}, {"type": "Feature", "geometry": {"type": "Point", "coordinates": [-2.935, 43.263056]}, "properties": {"id": "lca:place/bilbao", "title": "Bilbao", "occurrences": 72, "first_year": 1480, "last_year": 1547, "variants": "Bilbowe; Bylbow; Bilbow; Bylbowe; Bilbaw; Bylbo", "volumes": ["III-5", "IV-1", "IV-10", "IV-11", "IV-12", "IV-13", "IV-14", "IV-15", "IV-16", "IV-17", "IV-19", "IV-2", "IV-20", "IV-3", "IV-8", "IV-9"], "match": "wd:Q8692", "has_outline": false}}, {"type": "Feature", "geometry": {"type": "Point", "coordinates": [1.005082, 52.946347]}, "properties": {"id": "lca:place/blakeney", "title": "Blakeney", "occurrences": 1, "first_year": 1438, "last_year": 1439, "variants": "", "volumes": ["II-6"], "match": "wd:Q327300", "has_outline": false}}, {"type": "Feature", "geometry": {"type": "Point", "coordinates": [-0.57944, 44.83778]}, "properties": {"id": "lca:place/bordeaux", "title": "Bordeaux", "occurrences": 28, "first_year": 1390, "last_year": 1535, "variants": "Burdegalam; Burdeux; Burdegale; Birdux; Burdeos", "volumes": ["I-5", "II-10", "II-2", "II-4", "II-5", "II-6", "II-7", "II-8", "III-2", "IV-13", "IV-15", "IV-16", "IV-17"], "match": "gn:6455058", "has_outline": false}}, {"type": "Feature", "geometry": {"type": "Point", "coordinates": [-0.020648, 52.976855]}, "properties": {"id": "lca:place/boston", "title": "Boston", "occurrences": 5, "first_year": 1445, "last_year": 1540, "variants": "Botston", "volumes": ["II-9", "III-4", "III-5", "IV-1", "IV-16", "IV-18"], "match": "wd:Q311975", "has_outline": false}}, {"type": "Feature", "geometry": {"type": "Point", "coordinates": [1.61389, 50.72556]}, "properties": {"id": "lca:place/boulogne", "title": "Boulogne", "occurrences": 10, "first_year": 1456, "last_year": 1548, "variants": "Boleyn; Bollene; Bullene; Bolloniam; Bologne; Bullon", "volumes": ["II-12", "IV-11", "IV-20", "IV-21"], "match": "gn:6439391", "has_outline": false}}, {"type": "Feature", "geometry": {"type": "Point", "coordinates": [0.889883, 51.7338]}, "properties": {"id": "lca:place/bradwell-on-sea", "title": "Bradwell-on-Sea", "occurrences": 2, "first_year": 1477, "last_year": 1479, "variants": "Bradwelle; Bradwell on Sea or Bradwell Waterside", "volumes": ["III-4"], "match": "wd:Q4955149", "has_outline": false}}, {"type": "Feature", "geometry": {"type": "Point", "coordinates": [4.163474, 51.902536]}, "properties": {"id": "lca:place/brielle", "title": "Brielle", "occurrences": 1, "first_year": 1533, "last_year": 1535, "variants": "", "volumes": ["IV-17"], "match": "ohm:n2146288733", "has_outline": false}}, {"type": "Feature", "geometry": {"type": "Point", "coordinates": [1.016111, 51.812914]}, "properties": {"id": "lca:place/brightlingsea", "title": "Brightlingsea", "occurrences": 216, "first_year": 1461, "last_year": 1555, "variants": "Brikelsey; Brykilsey; Brykelsay; Brykylsay; Brekelsey; Bryklessey; Brykesley; Briklessey; Brykklylsey; Brykkelsey; Brikkelsey; Brekilsey; Brekylsey; Brykelsey; Brykylsey; Brikilsey; Brykelsee; Brykelseye; Brickelsey; Briklesse; Brikylsey; Brekylzee; Brykylzee; Brekylsee; Brykylsee; Brykkylsey", "volumes": ["III-1", "III-4", "III-5", "III-6", "IV-1", "IV-10", "IV-12", "IV-13", "IV-14", "IV-15", "IV-16", "IV-17", "IV-18", "IV-19", "IV-2", "IV-20", "IV-21", "IV-23", "IV-24", "IV-3", "IV-4", "IV-8", "IV-9"], "match": "iv:IV:IV1680-052-60", "has_outline": false}}, {"type": "Feature", "geometry": {"type": "Point", "coordinates": [-2.591457, 51.454486]}, "properties": {"id": "lca:place/bristol", "title": "Bristol", "occurrences": 19, "first_year": 1438, "last_year": 1548, "variants": "Bristall; Bristollia; Bristollie; Bristowe; Bristolliam", "volumes": ["II-6", "II-7", "II-9", "III-4", "III-5", "IV-21", "IV-3"], "match": "iv:IV:IV1680-054-54", "has_outline": false}}, {"type": "Feature", "geometry": {"type": "Point", "coordinates": [-3.5166, 50.395784]}, "properties": {"id": "lca:place/brixham", "title": "Brixham", "occurrences": 2, "first_year": 1519, "last_year": 1520, "variants": "", "volumes": ["IV-13"], "match": "iv:IV:IV1680-055-08", "has_outline": false}}, {"type": "Feature", "geometry": {"type": "Point", "coordinates": [3.224167, 51.208889]}, "properties": {"id": "lca:place/bruges", "title": "Bruges", "occurrences": 5, "first_year": 1439, "last_year": 1559, "variants": "Brugges; Brugg'; Bruggez; Bryudges", "volumes": ["II-7", "III-2", "IV-25"], "match": "wd:Q12994", "has_outline": false}}, {"type": "Feature", "geometry": {"type": "Point", "coordinates": [0.816024, 51.629012]}, "properties": {"id": "lca:place/burnham-on-crouch", "title": "Burnham on Crouch", "occurrences": 3, "first_year": 1477, "last_year": 1533, "variants": "Burneham; Burnham", "volumes": ["III-4", "IV-15", "IV-16"], "match": "iv:IV:IV1680-063-54", "has_outline": false}}, {"type": "Feature", "geometry": {"type": "Point", "coordinates": [-6.2975, 36.535]}, "properties": {"id": "lca:place/cadiz", "title": "Cadiz", "occurrences": 3, "first_year": 1480, "last_year": 1514, "variants": "Kadys; Kadis; Cadez", "volumes": ["III-5", "IV-11"], "match": "wd:Q15682", "has_outline": false}}, {"type": "Feature", "geometry": {"type": "Point", "coordinates": [-0.35912, 49.18585]}, "properties": {"id": "lca:place/caen", "title": "Caen", "occurrences": 26, "first_year": 1434, "last_year": 1524, "variants": "Cane; Kane", "volumes": ["II-5", "II-6", "II-8", "II-9", "III-5", "IV-14"], "match": "gn:3029241", "has_outline": false}}, {"type": "Feature", "geometry": {"type": "Point", "coordinates": [1.841583, 50.95694]}, "properties": {"id": "lca:place/calais", "title": "Calais", "occurrences": 1970, "first_year": 1390, "last_year": 1555, "variants": "Calesiam; Calesia; Calisiam; de Calesia; Calesie; Calisia; Caleys; Calecia; Calecium; Calicia; Cales; Calys; Caleis; Calsiam; Caleciam; Callis; Callesiam; Caliciam; Calis; Calleys", "volumes": ["I-6", "II-10", "II-11", "II-12", "II-2", "II-3", "II-4", "II-5", "II-6", "II-7", "II-8", "II-9", "III-1", "III-2", "III-3", "III-4", "III-5", "III-6", "IV-1", "IV-10", "IV-12", "IV-14", "IV-15", "IV-16", "IV-17", "IV-18", "IV-19", "IV-2", "IV-20", "IV-21", "IV-23", "IV-24", "IV-3", "IV-4", "IV-6", "IV-8", "IV-9"], "match": "wd:Q5018343", "has_outline": false}}, {"type": "Feature", "geometry": {"type": "Point", "coordinates": [1.841583, 50.95694]}, "properties": {"id": "lca:place/calais-castle", "title": "Calais Castle", "occurrences": 1, "first_year": "", "last_year": "", "variants": "le Castelle de Calesia", "volumes": [], "match": "", "has_outline": false}}, {"type": "Feature", "geometry": {"type": "Point", "coordinates": [-8.83824, 41.87787]}, "properties": {"id": "lca:place/caminha", "title": "Caminha", "occurrences": 5, "first_year": 1513, "last_year": 1533, "variants": "Camena; Cameno; Camyna", "volumes": ["IV-11", "IV-13", "IV-14", "IV-16"], "match": "wd:Q986217", "has_outline": false}}, {"type": "Feature", "geometry": {"type": "Point", "coordinates": [-8.994444, 37.025]}, "properties": {"id": "lca:place/cape-st-vincent", "title": "Cape St Vincent", "occurrences": 1, "first_year": "", "last_year": "", "variants": "Seynt Vincent", "volumes": [], "match": "wd:Q4103", "has_outline": false}}, {"type": "Feature", "geometry": {"type": "Point", "coordinates": [-3.215, 43.384444]}, "properties": {"id": "lca:place/castrourdiales", "title": "Castrourdiales", "occurrences": 7, "first_year": 1525, "last_year": 1535, "variants": "Castro", "volumes": ["IV-15", "IV-16", "IV-17"], "match": "wd:Q501090", "has_outline": false}}, {"type": "Feature", "geometry": {"type": "Point", "coordinates": [0.72561, 49.52577]}, "properties": {"id": "lca:place/caudebec-en-caux", "title": "Caudebec-en-Caux", "occurrences": 3, "first_year": "", "last_year": "", "variants": "Caudebek; Cawldebek", "volumes": [], "match": "gn:3028215", "has_outline": false}}, {"type": "Feature", "geometry": {"type": "Point", "coordinates": [-1.61636, 49.63984]}, "properties": {"id": "lca:place/cherbourg", "title": "Cherbourg", "occurrences": 1, "first_year": "", "last_year": "", "variants": "Chereborgh", "volumes": [], "match": "gn:3025466", "has_outline": false}}, {"type": "Feature", "geometry": {"type": "Point", "coordinates": [0.89033, 51.888024]}, "properties": {"id": "lca:place/colchester", "title": "Colchester", "occurrences": 99, "first_year": 1428, "last_year": 1559, "variants": "Colcestriam; de Colcestria; Colcestria; Colchestre; Colchestur; Colcestre; Colcester; Colc(h)estre; Essex", "volumes": ["II-10", "II-11", "II-12", "II-3", "II-4", "II-5", "II-7", "II-9", "III-2", "III-3", "III-4", "III-5", "III-6", "IV-1", "IV-12", "IV-14", "IV-15", "IV-16", "IV-17", "IV-18", "IV-19", "IV-2", "IV-21", "IV-23", "IV-24", "IV-25", "IV-3", "IV-4", "IV-9"], "match": "iv:IV:IV1680-090-29", "has_outline": false}}, {"type": "Feature", "geometry": {"type": "Point", "coordinates": [6.95427, 50.93835]}, "properties": {"id": "lca:place/cologne", "title": "Cologne", "occurrences": 9, "first_year": 1438, "last_year": 1477, "variants": "Colonia; Coleyn; Colayn", "volumes": ["II-6", "II-7", "II-9", "III-3"], "match": "gn:6553049", "has_outline": false}}, {"type": "Feature", "geometry": {"type": "Point", "coordinates": [-8.395932, 43.370707]}, "properties": {"id": "lca:place/corunna", "title": "Corunna", "occurrences": 1, "first_year": 1513, "last_year": 1514, "variants": "Groyne", "volumes": ["IV-11"], "match": "ohm:n2095948458", "has_outline": false}}, {"type": "Feature", "geometry": {"type": "Point", "coordinates": [1.700398, 52.369042]}, "properties": {"id": "lca:place/covehithe", "title": "Covehithe", "occurrences": 5, "first_year": 1477, "last_year": 1524, "variants": "Covehythe; Cohithe; Suffolk", "volumes": ["III-4", "IV-1", "IV-14"], "match": "wd:Q2690061", "has_outline": false}}, {"type": "Feature", "geometry": {"type": "Point", "coordinates": [-4.488889, 48.245278]}, "properties": {"id": "lca:place/crozon", "title": "Crozon", "occurrences": 5, "first_year": 1519, "last_year": 1535, "variants": "Croydon; Crowdon", "volumes": ["IV-13", "IV-17"], "match": "wd:Q218058", "has_outline": false}}, {"type": "Feature", "geometry": {"type": "Point", "coordinates": [18.654023, 54.348291]}, "properties": {"id": "lca:place/danzig", "title": "Danzig", "occurrences": 47, "first_year": 1434, "last_year": 1548, "variants": "Dansske; Dansk in Prucia; Dansk; Danske; Gdansk; Gdańsk", "volumes": ["II-11", "II-5", "II-6", "II-7", "II-9", "III-5", "III-6", "IV-13", "IV-21"], "match": "wd:Q1792", "has_outline": false}}, {"type": "Feature", "geometry": {"type": "Point", "coordinates": [0.236003, 51.440953]}, "properties": {"id": "lca:place/dartford", "title": "Dartford", "occurrences": 8, "first_year": 1445, "last_year": 1540, "variants": "Derteforth; Dertford; Dertforde", "volumes": ["II-10", "II-9", "IV-14", "IV-18"], "match": "iv:IV:IV1680-105-26", "has_outline": false}}, {"type": "Feature", "geometry": {"type": "Point", "coordinates": [-3.589573, 50.348041]}, "properties": {"id": "lca:place/dartmouth", "title": "Dartmouth", "occurrences": 9, "first_year": 1438, "last_year": 1559, "variants": "Dertemouth; Dertmouth; Dartmowth", "volumes": ["II-6", "II-9", "III-2", "III-5", "IV-13", "IV-25"], "match": "iv:IV:IV1680-105-28", "has_outline": false}}, {"type": "Feature", "geometry": {"type": "Point", "coordinates": [1.3924, 51.217977]}, "properties": {"id": "lca:place/deal", "title": "Deal", "occurrences": 5, "first_year": 1445, "last_year": 1490, "variants": "Dele", "volumes": ["II-9", "IV-1"], "match": "iv:IV:IV1680-105-60", "has_outline": false}}, {"type": "Feature", "geometry": {"type": "Point", "coordinates": [-0.028724, 51.47538]}, "properties": {"id": "lca:place/deptford", "title": "Deptford", "occurrences": 9, "first_year": 1483, "last_year": 1553, "variants": "Depford; Detford", "volumes": ["III-6", "IV-1", "IV-16", "IV-2", "IV-23"], "match": "iv:IV:IV1680-107-58", "has_outline": false}}, {"type": "Feature", "geometry": {"type": "Point", "coordinates": [-2.35382, 43.29457]}, "properties": {"id": "lca:place/deva", "title": "Deva", "occurrences": 8, "first_year": 1431, "last_year": 1524, "variants": "Deve; Debe; la Dewe; Deva in Biskaia", "volumes": ["II-4", "IV-1", "IV-10", "IV-11", "IV-13", "IV-14"], "match": "gn:6358119", "has_outline": false}}, {"type": "Feature", "geometry": {"type": "Point", "coordinates": [-2.94854, 43.27152]}, "properties": {"id": "lca:place/dewesto", "title": "Dewesto", "occurrences": 2, "first_year": 1525, "last_year": 1531, "variants": "Dewsto", "volumes": ["IV-15"], "match": "gn:3123912", "has_outline": false}}, {"type": "Feature", "geometry": {"type": "Point", "coordinates": [1.075, 49.925]}, "properties": {"id": "lca:place/dieppe", "title": "Dieppe", "occurrences": 14, "first_year": 1428, "last_year": 1559, "variants": "Depe; Dipe", "volumes": ["II-3", "II-4", "II-5", "III-5", "IV-15", "IV-16", "IV-18", "IV-20", "IV-25", "IV-3", "IV-8", "IV-9"], "match": "wd:Q183557", "has_outline": false}}, {"type": "Feature", "geometry": {"type": "Point", "coordinates": [-1.1325, 53.522778]}, "properties": {"id": "lca:place/doncaster", "title": "Doncaster", "occurrences": 2, "first_year": "", "last_year": "", "variants": "Doncastre; Dancastre", "volumes": [], "match": "wd:Q58900", "has_outline": false}}, {"type": "Feature", "geometry": {"type": "Point", "coordinates": [4.668944, 51.814359]}, "properties": {"id": "lca:place/dordrecht", "title": "Dordrecht", "occurrences": 21, "first_year": 1428, "last_year": 1559, "variants": "Dordright; Dordryght; Durdraught in Holandia; Durdraught; Durdreight; Durdreght; Durdreyght; Durdraight; Durdraugh; Dordryth; Durdright; Derdroit; Dordrighte", "volumes": ["II-11", "II-12", "II-3", "II-5", "II-6", "II-7", "III-2", "III-5", "IV-14", "IV-17", "IV-25"], "match": "wd:Q26421", "has_outline": false}}, {"type": "Feature", "geometry": {"type": "Point", "coordinates": [3.07917, 50.37083]}, "properties": {"id": "lca:place/douai", "title": "Douai", "occurrences": 1, "first_year": 1509, "last_year": 1510, "variants": "Dowet", "volumes": ["IV-9"], "match": "gn:6454407", "has_outline": false}}, {"type": "Feature", "geometry": {"type": "Point", "coordinates": [1.314161, 51.125771]}, "properties": {"id": "lca:place/dover", "title": "Dover", "occurrences": 74, "first_year": 1390, "last_year": 1559, "variants": "Dovorriam; Doveriam; Doverriam; Dovorrie; Dovorria; Dovyr; Doverre; Dovir", "volumes": ["I-5", "II-10", "II-12", "II-4", "II-5", "II-7", "II-9", "IV-1", "IV-10", "IV-12", "IV-13", "IV-14", "IV-15", "IV-17", "IV-2", "IV-21", "IV-24", "IV-25", "IV-3", "IV-4", "IV-5", "IV-8", "IV-9"], "match": "iv:IV:IV1680-111-09", "has_outline": false}}, {"type": "Feature", "geometry": {"type": "Point", "coordinates": [2.376389, 51.037778]}, "properties": {"id": "lca:place/dunkirk", "title": "Dunkirk", "occurrences": 34, "first_year": 1434, "last_year": 1531, "variants": "Dunkerk; Donkyrk; Dunkyrk; Dunkyrke", "volumes": ["II-5", "II-7", "II-9", "III-2", "IV-10", "IV-15", "IV-2"], "match": "wd:Q45797", "has_outline": false}}, {"type": "Feature", "geometry": {"type": "Point", "coordinates": [1.619039, 52.272622]}, "properties": {"id": "lca:place/dunwich", "title": "Dunwich", "occurrences": 30, "first_year": 1445, "last_year": 1548, "variants": "Dounwhich; Dounwych; Dunwych; Donwyche; Dunwyche; Estende; Dunwiche; Donwic", "volumes": ["II-10", "II-12", "II-9", "IV-1", "IV-10", "IV-12", "IV-14", "IV-19", "IV-20", "IV-21", "IV-4", "IV-8"], "match": "iv:IV:IV1680-114-12", "has_outline": false}}, {"type": "Feature", "geometry": {"type": "Point", "coordinates": [-1.270962, 54.770731]}, "properties": {"id": "lca:place/durham", "title": "Durham", "occurrences": 1, "first_year": 1445, "last_year": 1508, "variants": "", "volumes": ["II-9", "IV-8"], "match": "ohm:n2126308544", "has_outline": false}}, {"type": "Feature", "geometry": {"type": "Point", "coordinates": [4.621897, 52.617628]}, "properties": {"id": "lca:place/egmond", "title": "Egmond", "occurrences": 4, "first_year": 1438, "last_year": 1440, "variants": "Egmond in Holandia", "volumes": ["II-6", "II-7"], "match": "wd:Q486490", "has_outline": false}}, {"type": "Feature", "geometry": {"type": "Point", "coordinates": [5.29167, 52.70333]}, "properties": {"id": "lca:place/enkhuizen", "title": "Enkhuizen", "occurrences": 1, "first_year": 1438, "last_year": 1439, "variants": "Inkhous in Holandia", "volumes": ["II-6"], "match": "gn:2756077", "has_outline": false}}, {"type": "Feature", "geometry": {"type": "Point", "coordinates": [0.158327, 51.472086]}, "properties": {"id": "lca:place/erith", "title": "Erith", "occurrences": 75, "first_year": 1477, "last_year": 1547, "variants": "Eryth; Eyreth; Earythe; Erythe", "volumes": ["III-4", "IV-1", "IV-12", "IV-14", "IV-15", "IV-16", "IV-17", "IV-18", "IV-2", "IV-20", "IV-3", "IV-4", "IV-8", "IV-9"], "match": "iv:IV:IV1680-122-17", "has_outline": false}}, {"type": "Feature", "geometry": {"type": "Point", "coordinates": [1.682754, 52.333614]}, "properties": {"id": "lca:place/eston", "title": "Eston", "occurrences": 8, "first_year": 1487, "last_year": 1524, "variants": "Eston Bavent", "volumes": ["IV-1", "IV-10", "IV-14", "IV-3", "IV-4", "IV-9"], "match": "wd:Q2538658", "has_outline": false}}, {"type": "Feature", "geometry": {"type": "Point", "coordinates": [-3.533108, 50.721539]}, "properties": {"id": "lca:place/exeter", "title": "Exeter", "occurrences": 2, "first_year": 1445, "last_year": 1545, "variants": "Exetur; Exceter", "volumes": ["II-9", "IV-16", "IV-19"], "match": "wd:Q60576119", "has_outline": false}}, {"type": "Feature", "geometry": {"type": "Point", "coordinates": [-5.066703, 50.147528]}, "properties": {"id": "lca:place/falmouth", "title": "Falmouth", "occurrences": 1, "first_year": 1493, "last_year": 1495, "variants": "", "volumes": ["IV-3"], "match": "gn:2649715", "has_outline": false}}, {"type": "Feature", "geometry": {"type": "Point", "coordinates": [0.882705, 51.312601]}, "properties": {"id": "lca:place/faversham", "title": "Faversham", "occurrences": 28, "first_year": 1431, "last_year": 1545, "variants": "Feveresham; Feversham; Faveresham; Fevirsham; Feveressham", "volumes": ["II-10", "II-4", "II-5", "II-6", "II-7", "II-9", "III-1", "III-2", "III-5", "IV-12", "IV-19"], "match": "iv:IV:IV1680-129-03", "has_outline": false}}, {"type": "Feature", "geometry": {"type": "Point", "coordinates": [11.615167, 44.830872]}, "properties": {"id": "lca:place/ferrara", "title": "Ferrara", "occurrences": 2, "first_year": 1541, "last_year": 1545, "variants": "", "volumes": ["IV-19"], "match": "gn:9031239", "has_outline": false}}, {"type": "Feature", "geometry": {"type": "Point", "coordinates": [4.5, 51.0]}, "properties": {"id": "lca:place/flanders", "title": "Flanders", "occurrences": 6, "first_year": 1439, "last_year": 1450, "variants": "de Flandria; Flandria; Flaundres; Flandrie", "volumes": ["II-10", "II-7", "II-9"], "match": "wd:Q234", "has_outline": false}}, {"type": "Feature", "geometry": {"type": "Point", "coordinates": [0.474128, 51.53395]}, "properties": {"id": "lca:place/fobbing", "title": "Fobbing", "occurrences": 1, "first_year": 1434, "last_year": 1438, "variants": "Fobbyng", "volumes": ["II-5"], "match": "wd:Q4405293", "has_outline": false}}, {"type": "Feature", "geometry": {"type": "Point", "coordinates": [-4.634508, 50.335196]}, "properties": {"id": "lca:place/fowey", "title": "Fowey", "occurrences": 16, "first_year": 1438, "last_year": 1520, "variants": "Fowy; Fowye", "volumes": ["II-6", "II-7", "II-9", "III-3", "III-5", "IV-12", "IV-13", "IV-9"], "match": "wd:Q1025790", "has_outline": false}}, {"type": "Feature", "geometry": {"type": "Point", "coordinates": [-1.791478, 43.362437]}, "properties": {"id": "lca:place/fuenterrabia", "title": "Fuenterrabia", "occurrences": 31, "first_year": 1445, "last_year": 1547, "variants": "Fount Raby; Fonte Raby; Fonte Ravea; Fonteraby; Founteraby; Fonteravea; Fountrabi; Fountraby; Fonte Rabia; Fonte Revea; Fo(u)nteraby; Gadalopo", "volumes": ["II-9", "IV-1", "IV-10", "IV-11", "IV-12", "IV-13", "IV-14", "IV-16", "IV-17", "IV-20", "IV-3", "IV-9"], "match": "wd:Q492312", "has_outline": false}}, {"type": "Feature", "geometry": {"type": "Point", "coordinates": [0.37457, 49.75787]}, "properties": {"id": "lca:place/fecamp", "title": "Fécamp", "occurrences": 2, "first_year": 1507, "last_year": 1510, "variants": "Feckham in Normandia; Fekham", "volumes": ["IV-8", "IV-9"], "match": "gn:3018794", "has_outline": false}}, {"type": "Feature", "geometry": {"type": "Point", "coordinates": [8.933983, 44.407186]}, "properties": {"id": "lca:place/genoa", "title": "Genoa", "occurrences": 13, "first_year": 1431, "last_year": 1553, "variants": "Janua; Januensibus; Genesia; Genua", "volumes": ["II-10", "II-4", "II-5", "II-6", "II-7", "IV-23"], "match": "wd:Q1449", "has_outline": false}}, {"type": "Feature", "geometry": {"type": "Point", "coordinates": [0.556558, 51.383135]}, "properties": {"id": "lca:place/gillingham", "title": "Gillingham", "occurrences": 11, "first_year": 1495, "last_year": 1555, "variants": "Jellyngham; Gyllingham; Jyllyngham; Gyllyngham; Gillingam; Jellingham; Gelyngham", "volumes": ["IV-14", "IV-15", "IV-20", "IV-21", "IV-23", "IV-24", "IV-4"], "match": "iv:IV:IV1680-139-45", "has_outline": false}}, {"type": "Feature", "geometry": {"type": "Point", "coordinates": [3.89033, 51.50436]}, "properties": {"id": "lca:place/goes", "title": "Goes", "occurrences": 4, "first_year": 1461, "last_year": 1472, "variants": "Goos; þe Goos", "volumes": ["III-1", "III-2"], "match": "wd:Q10072", "has_outline": false}}, {"type": "Feature", "geometry": {"type": "Point", "coordinates": [18.55, 57.5]}, "properties": {"id": "lca:place/gotland", "title": "Gotland", "occurrences": 1, "first_year": 1461, "last_year": 1465, "variants": "", "volumes": ["III-1"], "match": "gn:2711511", "has_outline": false}}, {"type": "Feature", "geometry": {"type": "Point", "coordinates": [4.710238, 52.011303]}, "properties": {"id": "lca:place/gouda", "title": "Gouda", "occurrences": 11, "first_year": 1434, "last_year": 1559, "variants": "Gowe; der Gowe; Tregowe; Tergowe; Gowe Gouda; Tergoo", "volumes": ["II-10", "II-12", "II-5", "II-6", "II-7", "II-9", "III-5", "III-6", "IV-25"], "match": "wd:Q33439340", "has_outline": false}}, {"type": "Feature", "geometry": {"type": "Point", "coordinates": [0.37271, 51.440963]}, "properties": {"id": "lca:place/gravesend", "title": "Gravesend", "occurrences": 52, "first_year": 1390, "last_year": 1559, "variants": "Gravisende; Gravesende; Gravishend; Gravishende; Haddley; Gravysende", "volumes": ["I-6", "II-10", "II-12", "II-4", "II-5", "II-6", "II-7", "II-9", "III-1", "III-2", "III-3", "III-4", "III-5", "IV-10", "IV-11", "IV-14", "IV-15", "IV-2", "IV-21", "IV-23", "IV-24", "IV-25", "IV-8"], "match": "iv:IV:IV1680-144-46", "has_outline": false}}, {"type": "Feature", "geometry": {"type": "Point", "coordinates": [0.286904, 51.451662]}, "properties": {"id": "lca:place/greenhithe", "title": "Greenhithe", "occurrences": 11, "first_year": 1439, "last_year": 1502, "variants": "Grenehyth; Grenehithe; Grenehythe", "volumes": ["II-7", "III-5", "IV-1", "IV-2", "IV-3", "IV-4"], "match": "iv:IV:IV1680-145-21", "has_outline": false}}, {"type": "Feature", "geometry": {"type": "Point", "coordinates": [-0.080877, 53.564902]}, "properties": {"id": "lca:place/grimsby", "title": "Grimsby", "occurrences": 8, "first_year": 1445, "last_year": 1533, "variants": "Grymesby; Grymmysby; Grymsby; Grymmesby; Gremysby", "volumes": ["II-10", "II-9", "IV-12", "IV-15", "IV-16", "IV-4", "IV-9"], "match": "iv:IV:IV1680-146-21", "has_outline": false}}, {"type": "Feature", "geometry": {"type": "Point", "coordinates": [-2.203737, 43.304456]}, "properties": {"id": "lca:place/guetaria", "title": "Guetaria", "occurrences": 2, "first_year": 1445, "last_year": 1485, "variants": "Gatare; Gettary", "volumes": ["II-9", "III-4", "III-6"], "match": "wd:Q849330", "has_outline": false}}, {"type": "Feature", "geometry": {"type": "Point", "coordinates": [-2.429167, 47.328056]}, "properties": {"id": "lca:place/guerande", "title": "Guérande", "occurrences": 5, "first_year": 1439, "last_year": 1481, "variants": "Gerrond; Geronn'; Gerrand", "volumes": ["II-7", "III-5"], "match": "wd:Q501971", "has_outline": false}}, {"type": "Feature", "geometry": {"type": "Point", "coordinates": [4.63683, 52.38084]}, "properties": {"id": "lca:place/haarlem", "title": "Haarlem", "occurrences": 7, "first_year": 1438, "last_year": 1559, "variants": "Herlam in Holandia; Harlam; Harlow", "volumes": ["II-6", "III-2", "IV-25"], "match": "gn:2755003", "has_outline": false}}, {"type": "Feature", "geometry": {"type": "Point", "coordinates": [0.609344, 51.552849]}, "properties": {"id": "lca:place/hadleigh", "title": "Hadleigh", "occurrences": 1, "first_year": 1550, "last_year": 1553, "variants": "Hadley", "volumes": ["IV-23"], "match": "wd:Q2346831", "has_outline": false}}, {"type": "Feature", "geometry": {"type": "Point", "coordinates": [10.0, 53.55]}, "properties": {"id": "lca:place/hamburg", "title": "Hamburg", "occurrences": 11, "first_year": 1438, "last_year": 1485, "variants": "Hamburgh", "volumes": ["II-6", "III-5", "III-6"], "match": "gn:7602585", "has_outline": false}}, {"type": "Feature", "geometry": {"type": "Point", "coordinates": [0.19827, 49.5066]}, "properties": {"id": "lca:place/harfleur", "title": "Harfleur", "occurrences": 6, "first_year": 1431, "last_year": 1481, "variants": "Hareflewe; Harflewe; Harflete; Hareflete; Harflew", "volumes": ["II-11", "II-4", "II-9", "III-5"], "match": "gn:3013922", "has_outline": false}}, {"type": "Feature", "geometry": {"type": "Point", "coordinates": [1.279152, 51.938085]}, "properties": {"id": "lca:place/harwich", "title": "Harwich", "occurrences": 7, "first_year": 1438, "last_year": 1548, "variants": "Harwych; Herwych; Herwiche; Herwyche; Harwiche; Harewyche; Herwych(e)", "volumes": ["II-6", "III-2", "IV-13", "IV-21", "IV-3"], "match": "iv:IV:IV1680-158-50", "has_outline": false}}, {"type": "Feature", "geometry": {"type": "Point", "coordinates": [0.570528, 50.861179]}, "properties": {"id": "lca:place/hastings", "title": "Hastings", "occurrences": 47, "first_year": 1439, "last_year": 1553, "variants": "Hastyng; Hastynges; Hastyngs; Hastinges; Herslough", "volumes": ["II-7", "IV-10", "IV-12", "IV-14", "IV-15", "IV-17", "IV-18", "IV-19", "IV-20", "IV-21", "IV-23", "IV-4", "IV-9"], "match": "iv:IV:IV1680-159-52", "has_outline": false}}, {"type": "Feature", "geometry": {"type": "Point", "coordinates": [0.591722, 51.775375]}, "properties": {"id": "lca:place/hatfield-peverel", "title": "Hatfield Peverel", "occurrences": 1, "first_year": 1465, "last_year": 1472, "variants": "Hatfelde", "volumes": ["III-2"], "match": "gn:2647343", "has_outline": false}}, {"type": "Feature", "geometry": {"type": "Point", "coordinates": [0.23294, 49.41985]}, "properties": {"id": "lca:place/honfleur", "title": "Honfleur", "occurrences": 6, "first_year": 1439, "last_year": 1524, "variants": "Hounflewe; Houndfflete; Hunteflete; Hunflett; Humflete; Houndflete", "volumes": ["II-7", "IV-14"], "match": "gn:3013173", "has_outline": false}}, {"type": "Feature", "geometry": {"type": "Point", "coordinates": [0.61295, 51.615723]}, "properties": {"id": "lca:place/hullbridge", "title": "Hullbridge", "occurrences": 21, "first_year": 1487, "last_year": 1545, "variants": "Hulbrege; Hulbridge; Hulbrige; Hulbrydge; Hulbryge; Hulle Brudge; Hulbrigge", "volumes": ["IV-1", "IV-12", "IV-14", "IV-15", "IV-16", "IV-18", "IV-19", "IV-3", "IV-9"], "match": "wd:Q2433284", "has_outline": false}}, {"type": "Feature", "geometry": {"type": "Point", "coordinates": [1.081687, 51.06917]}, "properties": {"id": "lca:place/hythe", "title": "Hythe", "occurrences": 11, "first_year": 1495, "last_year": 1531, "variants": "Hithe; Hyde; Hith", "volumes": ["IV-12", "IV-14", "IV-15", "IV-4"], "match": "iv:IV:IV1680-172-50", "has_outline": false}}, {"type": "Feature", "geometry": {"type": "Point", "coordinates": [1.520609, 52.140682]}, "properties": {"id": "lca:place/iken", "title": "Iken", "occurrences": 1, "first_year": 1507, "last_year": 1508, "variants": "Ikyn", "volumes": ["IV-8"], "match": "gn:13275252", "has_outline": false}}, {"type": "Feature", "geometry": {"type": "Point", "coordinates": [1.156517, 52.056563]}, "properties": {"id": "lca:place/ipswich", "title": "Ipswich", "occurrences": 16, "first_year": 1434, "last_year": 1559, "variants": "Yppewych; de Gipwico; de Gippewico; Gippewici; Ippeswiche; Ipswiche; Gippewico; Jippeswich; Ipsewyche; Jenighowe; Ipiswiche; Yppewich", "volumes": ["II-10", "II-5", "II-6", "II-9", "IV-10", "IV-13", "IV-14", "IV-16", "IV-18", "IV-20", "IV-21", "IV-23", "IV-25"], "match": "iv:IV:IV1680-187-50", "has_outline": false}}, {"type": "Feature", "geometry": {"type": "Point", "coordinates": [-1.2934, 50.698502]}, "properties": {"id": "lca:place/isle-of-wight", "title": "Isle of Wight", "occurrences": 2, "first_year": 1493, "last_year": 1495, "variants": "Wyght", "volumes": ["IV-3"], "match": "wd:Q650377", "has_outline": false}}, {"type": "Feature", "geometry": {"type": "Point", "coordinates": [12.692035, 42.492486]}, "properties": {"id": "lca:place/italy", "title": "Italy", "occurrences": 2, "first_year": 1461, "last_year": 1465, "variants": "Italie", "volumes": ["III-1"], "match": "wd:Q38", "has_outline": false}}, {"type": "Feature", "geometry": {"type": "Point", "coordinates": [-1.49369, 54.97934]}, "properties": {"id": "lca:place/jarrow", "title": "Jarrow", "occurrences": 1, "first_year": 1531, "last_year": 1533, "variants": "Jarowe", "volumes": ["IV-16"], "match": "wd:Q6161119", "has_outline": false}}, {"type": "Feature", "geometry": {"type": "Point", "coordinates": [0.023668, 51.357581]}, "properties": {"id": "lca:place/keston", "title": "Keston", "occurrences": 2, "first_year": 1495, "last_year": 1502, "variants": "", "volumes": ["IV-4"], "match": "wd:Q122322", "has_outline": false, "doubt": "doubtful: a ship's home port, but Keston is inland, on high ground; its fleet's other home ports are all on the Thames, the Medway or the coast"}}, {"type": "Feature", "geometry": {"type": "Point", "coordinates": [0.398953, 52.75333]}, "properties": {"id": "lca:place/king-s-lynn", "title": "King's Lynn", "occurrences": 19, "first_year": 1434, "last_year": 1553, "variants": "Lynne; Lyn; Lyne; Lynn", "volumes": ["II-10", "II-12", "II-5", "II-7", "II-9", "III-5", "IV-13", "IV-14", "IV-17", "IV-23", "IV-6", "IV-9"], "match": "iv:IV:IV1680-229-11", "has_outline": false}}, {"type": "Feature", "geometry": {"type": "Point", "coordinates": [-0.348641, 53.745987]}, "properties": {"id": "lca:place/kingston-upon-hull", "title": "Kingston upon Hull", "occurrences": 17, "first_year": 1434, "last_year": 1559, "variants": "Hull'; Hull; Kyngesdon; Hulle; Hull’", "volumes": ["II-10", "II-11", "II-5", "II-6", "II-7", "II-9", "IV-17", "IV-18", "IV-19", "IV-2", "IV-20", "IV-21", "IV-24", "IV-25"], "match": "iv:IV:IV1680-181-47", "has_outline": false}}, {"type": "Feature", "geometry": {"type": "Point", "coordinates": [-3.571309, 50.34829]}, "properties": {"id": "lca:place/kingswear", "title": "Kingswear", "occurrences": 1, "first_year": 1519, "last_year": 1520, "variants": "Kyngsware", "volumes": ["IV-13"], "match": "wd:Q1018137", "has_outline": false}}, {"type": "Feature", "geometry": {"type": "Point", "coordinates": [1.72261, 52.458293]}, "properties": {"id": "lca:place/kirkley", "title": "Kirkley", "occurrences": 16, "first_year": 1456, "last_year": 1531, "variants": "Kyrkeley; Kerteley; Kyrkley; Leura; Kirkeley; Kyrteley; Kyrtley", "volumes": ["II-12", "IV-1", "IV-10", "IV-15", "IV-3", "IV-4"], "match": "iv:IV:IV1680-198-56", "has_outline": false}}, {"type": "Feature", "geometry": {"type": "Point", "coordinates": [-4.24944, 48.45083]}, "properties": {"id": "lca:place/landerneau", "title": "Landerneau", "occurrences": 1, "first_year": 1519, "last_year": 1520, "variants": "Landernew", "volumes": ["IV-13"], "match": "gn:6453924", "has_outline": false}}, {"type": "Feature", "geometry": {"type": "Point", "coordinates": [-3.411661, 43.413085]}, "properties": {"id": "lca:place/laredo", "title": "Laredo", "occurrences": 2, "first_year": 1545, "last_year": 1547, "variants": "Alarada", "volumes": ["IV-20"], "match": "ohm:n2124119571", "has_outline": false}}, {"type": "Feature", "geometry": {"type": "Point", "coordinates": [-4.770833, 48.360278]}, "properties": {"id": "lca:place/le-conquet", "title": "Le Conquet", "occurrences": 2, "first_year": 1480, "last_year": 1533, "variants": "Conquet; Conquyt", "volumes": ["III-5", "IV-16"], "match": "wd:Q326149", "has_outline": false}}, {"type": "Feature", "geometry": {"type": "Point", "coordinates": [0.108056, 49.494167]}, "properties": {"id": "lca:place/le-havre", "title": "Le Havre", "occurrences": 1, "first_year": 1545, "last_year": 1559, "variants": "Newe Haven; Newhaven", "volumes": ["IV-20", "IV-25"], "match": "wd:Q42810", "has_outline": false}}, {"type": "Feature", "geometry": {"type": "Point", "coordinates": [0.013219, 51.44679]}, "properties": {"id": "lca:place/lee", "title": "Lee", "occurrences": 80, "first_year": 1434, "last_year": 1559, "variants": "Lye; Leghe; Legh; Lygh; Ligh; Lyghe; Leighe; Leigh", "volumes": ["II-11", "II-5", "III-4", "III-5", "III-6", "IV-1", "IV-12", "IV-14", "IV-15", "IV-16", "IV-17", "IV-18", "IV-19", "IV-2", "IV-20", "IV-21", "IV-23", "IV-24", "IV-25", "IV-3", "IV-4", "IV-8", "IV-9"], "match": "wd:Q6512849", "has_outline": false}}, {"type": "Feature", "geometry": {"type": "Point", "coordinates": [-2.504883, 43.363878]}, "properties": {"id": "lca:place/lequeitio", "title": "Lequeitio", "occurrences": 2, "first_year": 1509, "last_year": 1531, "variants": "Lequeto; Lequet", "volumes": ["IV-15", "IV-9"], "match": "wd:Q1227965", "has_outline": false}}, {"type": "Feature", "geometry": {"type": "Point", "coordinates": [-9.139016, 38.708042]}, "properties": {"id": "lca:place/lisbon", "title": "Lisbon", "occurrences": 3, "first_year": 1438, "last_year": 1461, "variants": "Lushebourn; Lusshebon; Lussborne", "volumes": ["II-12", "II-6", "II-8"], "match": "wd:Q597", "has_outline": false}}, {"type": "Feature", "geometry": {"type": "Point", "coordinates": [-4.16837, 47.83216]}, "properties": {"id": "lca:place/loctudy", "title": "Loctudy", "occurrences": 8, "first_year": 1519, "last_year": 1533, "variants": "Lotyd; Latud; Lotidero; Lotys; Lotydew", "volumes": ["IV-13", "IV-16"], "match": "gn:2997943", "has_outline": false}}, {"type": "Feature", "geometry": {"type": "Point", "coordinates": [0.671077, 51.375183]}, "properties": {"id": "lca:place/lower-halstow", "title": "Lower Halstow", "occurrences": 1, "first_year": 1512, "last_year": 1513, "variants": "Halstowe", "volumes": ["IV-10"], "match": "wd:Q2197099", "has_outline": false}}, {"type": "Feature", "geometry": {"type": "Point", "coordinates": [1.7508, 52.478089]}, "properties": {"id": "lca:place/lowestoft", "title": "Lowestoft", "occurrences": 6, "first_year": 1465, "last_year": 1535, "variants": "Lewystofte; Leystoft; Leystofte; Leystof", "volumes": ["III-2", "IV-17", "IV-3", "IV-4"], "match": "iv:IV:IV1680-206-34", "has_outline": false}}, {"type": "Feature", "geometry": {"type": "Point", "coordinates": [10.6849, 53.86664]}, "properties": {"id": "lca:place/lubeck", "title": "Lübeck", "occurrences": 1, "first_year": 1438, "last_year": 1439, "variants": "Lubik", "volumes": ["II-6"], "match": "ohm:n2113911756", "has_outline": false}}, {"type": "Feature", "geometry": {"type": "Point", "coordinates": [0.51906, 51.276024]}, "properties": {"id": "lca:place/maidstone", "title": "Maidstone", "occurrences": 46, "first_year": 1434, "last_year": 1559, "variants": "Maydestone; Maydeston; Maydstone; Maidestone", "volumes": ["II-12", "II-5", "II-7", "III-2", "III-4", "IV-1", "IV-12", "IV-14", "IV-15", "IV-16", "IV-17", "IV-18", "IV-24", "IV-25", "IV-4", "IV-6", "IV-8", "IV-9"], "match": "wd:Q213180", "has_outline": false}}, {"type": "Feature", "geometry": {"type": "Point", "coordinates": [0.677539, 51.731182]}, "properties": {"id": "lca:place/maldon", "title": "Maldon", "occurrences": 48, "first_year": 1434, "last_year": 1555, "variants": "de Maldon; Malden; Maulden", "volumes": ["II-12", "II-5", "III-2", "III-4", "IV-10", "IV-14", "IV-15", "IV-18", "IV-19", "IV-2", "IV-20", "IV-21", "IV-23", "IV-24", "IV-3", "IV-8", "IV-9"], "match": "wd:Q26272025", "has_outline": false}}, {"type": "Feature", "geometry": {"type": "Point", "coordinates": [0.442193, 51.286647]}, "properties": {"id": "lca:place/malling", "title": "Malling", "occurrences": 8, "first_year": 1465, "last_year": 1481, "variants": "Mallyng; Mellyng; Mallynge; East or West Malling", "volumes": ["III-2", "III-4", "III-5"], "match": "gn:2650381", "has_outline": false}}, {"type": "Feature", "geometry": {"type": "Point", "coordinates": [1.061342, 51.944854]}, "properties": {"id": "lca:place/manningtree", "title": "Manningtree", "occurrences": 1, "first_year": 1512, "last_year": 1559, "variants": "Manytre; Manytree", "volumes": ["IV-10", "IV-25"], "match": "ohm:n2128964115", "has_outline": false}}, {"type": "Feature", "geometry": {"type": "Point", "coordinates": [1.375656, 51.380375]}, "properties": {"id": "lca:place/margate", "title": "Margate", "occurrences": 7, "first_year": 1438, "last_year": 1508, "variants": "Mergate", "volumes": ["II-11", "II-12", "II-6", "II-7", "IV-4", "IV-8"], "match": "iv:IV:IV1680-377-52", "has_outline": false}}, {"type": "Feature", "geometry": {"type": "Point", "coordinates": [0.541705, 51.374465]}, "properties": {"id": "lca:place/medway", "title": "Medway", "occurrences": 1, "first_year": 1512, "last_year": 1513, "variants": "Medwey", "volumes": ["IV-10"], "match": "ohm:w174989939", "has_outline": false}}, {"type": "Feature", "geometry": {"type": "Point", "coordinates": [3.616266, 51.499968]}, "properties": {"id": "lca:place/middelburg", "title": "Middelburg", "occurrences": 85, "first_year": 1438, "last_year": 1533, "variants": "Midelborough; Middelborowgh; Middelborough; Mydylborgh; Middelburgh; Midelburgh; Middilburgh; Midilburgh; Medylburgh; Medilburgh; Myddelburgh; Myddilburgh; Midelbrough; Midelbourgh; Middelborgh; Mid(d)elburgh; Walcheren", "volumes": ["II-10", "II-11", "II-12", "II-6", "II-7", "II-8", "II-9", "III-2", "III-5", "III-6", "IV-12", "IV-16"], "match": "wd:Q52101", "has_outline": false}}, {"type": "Feature", "geometry": {"type": "Point", "coordinates": [0.46563, 51.302696]}, "properties": {"id": "lca:place/millhall", "title": "Millhall", "occurrences": 30, "first_year": 1465, "last_year": 1502, "variants": "Melhale; Melhalle; Milhawe; Mylhale; Milhall; Milhalle; Milhall(e)", "volumes": ["III-2", "III-4", "III-6", "IV-1", "IV-2", "IV-3", "IV-4"], "match": "iv:IV:IV1680-242-20", "has_outline": false}}, {"type": "Feature", "geometry": {"type": "Point", "coordinates": [0.72401, 51.346982]}, "properties": {"id": "lca:place/milton-regis", "title": "Milton Regis", "occurrences": 24, "first_year": 1446, "last_year": 1559, "variants": "Mylton; Milton; Meltin; Milton Shore; Melton Shore; Mylton Shore; Melton", "volumes": ["II-10", "II-12", "III-2", "III-4", "III-6", "IV-1", "IV-10", "IV-14", "IV-15", "IV-16", "IV-17", "IV-23", "IV-25", "IV-3", "IV-4"], "match": "gn:2642458", "has_outline": false}}, {"type": "Feature", "geometry": {"type": "Point", "coordinates": [-2.475228, 56.703801]}, "properties": {"id": "lca:place/montrose", "title": "Montrose", "occurrences": 7, "first_year": 1439, "last_year": 1440, "variants": "Scociam; Mounterose de Scocia; Scocia", "volumes": ["II-7"], "match": "ohm:n2095901893", "has_outline": false}}, {"type": "Feature", "geometry": {"type": "Point", "coordinates": [-2.8325, 47.5977]}, "properties": {"id": "lca:place/morbihan", "title": "Morbihan", "occurrences": 2, "first_year": 1531, "last_year": 1533, "variants": "Morbyan; Morbian", "volumes": ["IV-16"], "match": "wd:Q1144680", "has_outline": false}}, {"type": "Feature", "geometry": {"type": "Point", "coordinates": [-3.82778, 48.5775]}, "properties": {"id": "lca:place/morlaix", "title": "Morlaix", "occurrences": 3, "first_year": 1531, "last_year": 1533, "variants": "Morles; Moreles", "volumes": ["IV-16"], "match": "gn:6430976", "has_outline": false}}, {"type": "Feature", "geometry": {"type": "Point", "coordinates": [-2.385, 43.307222]}, "properties": {"id": "lca:place/motrico", "title": "Motrico", "occurrences": 7, "first_year": 1512, "last_year": 1535, "variants": "Muttreco; Montrego; Motryga; Marrotyk; Montryga", "volumes": ["IV-10", "IV-11", "IV-13", "IV-14", "IV-17"], "match": "wd:Q1618305", "has_outline": false}}, {"type": "Feature", "geometry": {"type": "Point", "coordinates": [-1.55336, 47.21725]}, "properties": {"id": "lca:place/nantes", "title": "Nantes", "occurrences": 3, "first_year": 1445, "last_year": 1533, "variants": "Naunte; Nauntt; Nauntes", "volumes": ["II-9", "IV-16"], "match": "gn:2990969", "has_outline": false}}, {"type": "Feature", "geometry": {"type": "Point", "coordinates": [0.459248, 51.310572]}, "properties": {"id": "lca:place/new-hythe", "title": "New Hythe", "occurrences": 116, "first_year": 1439, "last_year": 1559, "variants": "Newhight; Neuwythe; Newhyth; Newehith; Newhith; Newhithe; Newehithe; Newhythe; Newhyve; Newhide; Newhith(e)", "volumes": ["II-10", "II-12", "II-7", "II-9", "III-2", "III-4", "IV-1", "IV-10", "IV-12", "IV-14", "IV-15", "IV-2", "IV-21", "IV-25", "IV-3", "IV-4", "IV-8", "IV-9"], "match": "iv:IV:IV1680-172-49", "has_outline": false}}, {"type": "Feature", "geometry": {"type": "Point", "coordinates": [-1.60784, 54.975379]}, "properties": {"id": "lca:place/newcastle-upon-tyne", "title": "Newcastle upon Tyne", "occurrences": 11, "first_year": 1438, "last_year": 1548, "variants": "Newcastell; Novo Castro; Newcastelle; Newcastle; Newcastle on Tyne", "volumes": ["II-12", "II-6", "II-7", "II-9", "IV-1", "IV-18", "IV-19", "IV-20", "IV-21", "IV-4"], "match": "iv:IV:IV1680-253-14", "has_outline": false}}, {"type": "Feature", "geometry": {"type": "Point", "coordinates": [2.75135, 51.13008]}, "properties": {"id": "lca:place/nieuwpoort", "title": "Nieuwpoort", "occurrences": 22, "first_year": 1439, "last_year": 1559, "variants": "Newport in Flandria; Newport; Newporte; Neuport; Neweport", "volumes": ["II-7", "III-2", "IV-25", "IV-4"], "match": "gn:2790150", "has_outline": false}}, {"type": "Feature", "geometry": {"type": "Point", "coordinates": [0.329584, 51.441828]}, "properties": {"id": "lca:place/northflete", "title": "Northflete", "occurrences": 7, "first_year": 1465, "last_year": 1502, "variants": "Northeflete", "volumes": ["III-2", "IV-4"], "match": "wd:Q2087380", "has_outline": false}}, {"type": "Feature", "geometry": {"type": "Point", "coordinates": [-2.420622, 43.321007]}, "properties": {"id": "lca:place/ondarroa", "title": "Ondárroa", "occurrences": 5, "first_year": 1513, "last_year": 1535, "variants": "Undarra; Dondara; Andarro; Andarowe", "volumes": ["IV-11", "IV-12", "IV-17"], "match": "ohm:n2132123927", "has_outline": false}}, {"type": "Feature", "geometry": {"type": "Point", "coordinates": [2.919444, 51.225833]}, "properties": {"id": "lca:place/oostende", "title": "Oostende", "occurrences": 15, "first_year": 1465, "last_year": 1548, "variants": "Ostende; Ostend; Ustende in Flandria", "volumes": ["III-2", "III-5", "III-6", "IV-2", "IV-21"], "match": "wd:Q12996", "has_outline": false}}, {"type": "Feature", "geometry": {"type": "Point", "coordinates": [1.530932, 52.086405]}, "properties": {"id": "lca:place/orford", "title": "Orford", "occurrences": 1, "first_year": 1519, "last_year": 1520, "variants": "Ortfforde", "volumes": ["IV-13"], "match": "wd:Q2486348", "has_outline": false}}, {"type": "Feature", "geometry": {"type": "Point", "coordinates": [1.287889, 51.966428]}, "properties": {"id": "lca:place/orwell", "title": "Orwell", "occurrences": 14, "first_year": 1431, "last_year": 1520, "variants": "Orewell; Orewell'; Orewelle; Orwelle", "volumes": ["II-4", "II-5", "II-6", "II-7", "II-8", "IV-13"], "match": "tgn:1128169", "has_outline": false}}, {"type": "Feature", "geometry": {"type": "Point", "coordinates": [1.706416, 52.440812]}, "properties": {"id": "lca:place/pakefield", "title": "Pakefield", "occurrences": 3, "first_year": 1493, "last_year": 1518, "variants": "Pakefeld; Pacfeld", "volumes": ["IV-10", "IV-12", "IV-3"], "match": "gn:2640675", "has_outline": false}}, {"type": "Feature", "geometry": {"type": "Point", "coordinates": [2.348794, 48.853402]}, "properties": {"id": "lca:place/paris", "title": "Paris", "occurrences": 1, "first_year": 1550, "last_year": 1553, "variants": "", "volumes": ["IV-23"], "match": "ohm:r2796780", "has_outline": false}}, {"type": "Feature", "geometry": {"type": "Point", "coordinates": [-1.919167, 43.326389]}, "properties": {"id": "lca:place/pasajes", "title": "Pasajes", "occurrences": 19, "first_year": 1487, "last_year": 1548, "variants": "Passage; Passagio; Passagy; la Passage de Hispania; the Pasage", "volumes": ["IV-1", "IV-10", "IV-11", "IV-13", "IV-15", "IV-16", "IV-17", "IV-19", "IV-2", "IV-20", "IV-21"], "match": "wd:Q847127", "has_outline": false}}, {"type": "Feature", "geometry": {"type": "Point", "coordinates": [-4.3383, 47.81183]}, "properties": {"id": "lca:place/penmarc-h", "title": "Penmarc'h", "occurrences": 32, "first_year": 1519, "last_year": 1547, "variants": "Pennerke; Penmark; Penmarke; Pesmarke", "volumes": ["IV-13", "IV-14", "IV-16", "IV-20"], "match": "gn:2988088", "has_outline": false}}, {"type": "Feature", "geometry": {"type": "Point", "coordinates": [4.6583, 52.7678]}, "properties": {"id": "lca:place/petten", "title": "Petten", "occurrences": 12, "first_year": 1438, "last_year": 1440, "variants": "Pute in Holandia; Pette in Holandia; Pette; Pytte in Holandia; Pitte in Holandia; Pitte", "volumes": ["II-6", "II-7"], "match": "wd:Q446232", "has_outline": false}}, {"type": "Feature", "geometry": {"type": "Point", "coordinates": [0.338056, 50.820556]}, "properties": {"id": "lca:place/pevensey", "title": "Pevensey", "occurrences": 1, "first_year": 1477, "last_year": 1479, "variants": "Pemsey", "volumes": ["III-4"], "match": "wd:Q734453", "has_outline": false}}, {"type": "Feature", "geometry": {"type": "Point", "coordinates": [10.400134, 43.719427]}, "properties": {"id": "lca:place/pisa", "title": "Pisa", "occurrences": 1, "first_year": 1490, "last_year": 1492, "variants": "Portum Pisanum", "volumes": ["IV-2"], "match": "ohm:n2102492349", "has_outline": false}}, {"type": "Feature", "geometry": {"type": "Point", "coordinates": [0.494564, 51.56434]}, "properties": {"id": "lca:place/pitsea", "title": "Pitsea", "occurrences": 1, "first_year": 1495, "last_year": 1502, "variants": "Pytsey", "volumes": ["IV-4"], "match": "iv:IV:IV1680-282-20", "has_outline": false}}, {"type": "Feature", "geometry": {"type": "Point", "coordinates": [-2.946111, 43.411111]}, "properties": {"id": "lca:place/plentzia", "title": "Plentzia", "occurrences": 8, "first_year": 1519, "last_year": 1547, "variants": "Placencia; Plasencia; Plesaunce; Placentia; Applesencia; Placente", "volumes": ["IV-13", "IV-15", "IV-16", "IV-20"], "match": "wd:Q11699718", "has_outline": false}}, {"type": "Feature", "geometry": {"type": "Point", "coordinates": [-4.152629, 50.365961]}, "properties": {"id": "lca:place/plymouth", "title": "Plymouth", "occurrences": 16, "first_year": 1438, "last_year": 1553, "variants": "Plymmouth; Plimmouth; Plumouth; Plymmouthiam; Plymmouthe; Plymmoth; Plymmothe; Plymmowthe; Plymowthe", "volumes": ["II-6", "II-9", "III-3", "III-4", "III-5", "IV-13", "IV-17", "IV-18", "IV-19", "IV-23"], "match": "iv:IV:IV1680-283-22", "has_outline": false}}, {"type": "Feature", "geometry": {"type": "Point", "coordinates": [12.127222, 54.808611]}, "properties": {"id": "lca:place/polmaneke", "title": "Polmaneke", "occurrences": 1, "first_year": 1519, "last_year": 1520, "variants": "", "volumes": ["IV-13"], "match": "wd:Q23741596", "has_outline": false}}, {"type": "Feature", "geometry": {"type": "Point", "coordinates": [-1.98458, 50.71429]}, "properties": {"id": "lca:place/poole", "title": "Poole", "occurrences": 1, "first_year": 1445, "last_year": 1481, "variants": "Pole", "volumes": ["II-9", "III-5"], "match": "gn:2640101", "has_outline": false}}, {"type": "Feature", "geometry": {"type": "Point", "coordinates": [-8.610833, 41.15]}, "properties": {"id": "lca:place/porto", "title": "Porto", "occurrences": 14, "first_year": 1465, "last_year": 1547, "variants": "de Port; de Porte; Porte; Poorto; le Port de Portyngale; Oporto; Port(e)", "volumes": ["III-2", "III-5", "III-6", "IV-10", "IV-11", "IV-13", "IV-16", "IV-20", "IV-3"], "match": "wd:Q36433", "has_outline": false}}, {"type": "Feature", "geometry": {"type": "Point", "coordinates": [-1.078922, 50.804919]}, "properties": {"id": "lca:place/portsmouth", "title": "Portsmouth", "occurrences": 2, "first_year": 1525, "last_year": 1531, "variants": "Portismouth", "volumes": ["IV-15"], "match": "gn:2639996", "has_outline": false}}, {"type": "Feature", "geometry": {"type": "Point", "coordinates": [-3.020556, 43.317778]}, "properties": {"id": "lca:place/portugalete", "title": "Portugalete", "occurrences": 8, "first_year": 1512, "last_year": 1545, "variants": "Portogalette; Portegalett; Portagaletta; Portu Galetto; Portigalett; Portygalet; Portogalett; Portugaleta", "volumes": ["IV-10", "IV-11", "IV-12", "IV-13", "IV-17", "IV-19"], "match": "wd:Q3043733", "has_outline": false}}, {"type": "Feature", "geometry": {"type": "Point", "coordinates": [-4.333333, 48.066667]}, "properties": {"id": "lca:place/pouldavid", "title": "Pouldavid", "occurrences": 3, "first_year": 1519, "last_year": 1535, "variants": "Paldavy; Poldavid; Poldavy", "volumes": ["IV-13", "IV-17"], "match": "tgn:7618650", "has_outline": false}}, {"type": "Feature", "geometry": {"type": "Point", "coordinates": [4.964167, 52.505]}, "properties": {"id": "lca:place/purmerend", "title": "Purmerend", "occurrences": 11, "first_year": 1465, "last_year": 1481, "variants": "Primerende; Premerende", "volumes": ["III-2", "III-5"], "match": "wd:Q110423208", "has_outline": false}}, {"type": "Feature", "geometry": {"type": "Point", "coordinates": [0.745303, 51.414838]}, "properties": {"id": "lca:place/queenborough", "title": "Queenborough", "occurrences": 27, "first_year": 1439, "last_year": 1531, "variants": "Queneborowe; Queneborough; Quenburgh; Quenesburgh; Queneburgh; Quynborgh; Quynburgh; Qynburgh; Quinibrough", "volumes": ["II-10", "II-7", "III-5", "IV-12", "IV-14", "IV-15", "IV-3", "IV-4", "IV-8", "IV-9"], "match": "iv:IV:IV1680-289-59", "has_outline": false}}, {"type": "Feature", "geometry": {"type": "Point", "coordinates": [18.108333, 42.640278]}, "properties": {"id": "lca:place/ragusa", "title": "Ragusa", "occurrences": 22, "first_year": 1525, "last_year": 1535, "variants": "Aragosa; Arogustia; Aragusa", "volumes": ["IV-15", "IV-16", "IV-17"], "match": "wd:Q1722", "has_outline": false}}, {"type": "Feature", "geometry": {"type": "Point", "coordinates": [0.608387, 51.363288]}, "properties": {"id": "lca:place/rainham", "title": "Rainham", "occurrences": 44, "first_year": 1450, "last_year": 1531, "variants": "Raynam; Rengham; Regham; Reynham; Reynhame; Raynham; Reyneham; Rayneham; Reynham(e); Ryneham", "volumes": ["II-11", "II-12", "III-2", "III-3", "III-4", "III-6", "IV-1", "IV-10", "IV-12", "IV-14", "IV-15", "IV-3", "IV-4", "IV-9"], "match": "iv:IV:IV1680-290-50", "has_outline": false}}, {"type": "Feature", "geometry": {"type": "Point", "coordinates": [-0.041574, 51.511566]}, "properties": {"id": "lca:place/ratcliff", "title": "Ratcliff", "occurrences": 5, "first_year": 1439, "last_year": 1531, "variants": "Redecliff; Ratclyffe; Redclyf; Ratclyff; Rateclyffe", "volumes": ["II-7", "II-9", "III-5", "IV-14", "IV-15"], "match": "iv:IV:IV1680-291-44", "has_outline": false}}, {"type": "Feature", "geometry": {"type": "Point", "coordinates": [4.192134, 51.498767]}, "properties": {"id": "lca:place/reimerswaal", "title": "Reimerswaal", "occurrences": 3, "first_year": 1480, "last_year": 1481, "variants": "Remersale; Romerswale; Romersale; Romeswale", "volumes": ["III-5"], "match": "ohm:n2153114644", "has_outline": false}}, {"type": "Feature", "geometry": {"type": "Point", "coordinates": [-1.898613, 43.312527]}, "properties": {"id": "lca:place/rentaria", "title": "Rentária", "occurrences": 52, "first_year": 1512, "last_year": 1548, "variants": "la Renterea; Renteria; Arenterea; la Renteria; Rentorea; Renterea; Rentire; Arentria; Rentria; Rendre; Byscoye Renteria; Renterian; Renderie; Renterea in Spain; the Rentery; the Renterye", "volumes": ["IV-10", "IV-11", "IV-12", "IV-13", "IV-14", "IV-15", "IV-16", "IV-17", "IV-19", "IV-20", "IV-21"], "match": "wd:Q681893", "has_outline": false}}, {"type": "Feature", "geometry": {"type": "Point", "coordinates": [-7.04095, 43.53704]}, "properties": {"id": "lca:place/ribadeo", "title": "Ribadeo", "occurrences": 2, "first_year": 1513, "last_year": 1520, "variants": "Rebydavy; Rebadow", "volumes": ["IV-11", "IV-13"], "match": "wd:Q23992983", "has_outline": false}}, {"type": "Feature", "geometry": {"type": "Point", "coordinates": [0.506559, 51.388712]}, "properties": {"id": "lca:place/rochester", "title": "Rochester", "occurrences": 27, "first_year": 1434, "last_year": 1559, "variants": "Rouchestre; Rowchester; Rouchester; Rochestre; Rowcestre; Rochestyr", "volumes": ["II-10", "II-11", "II-12", "II-5", "II-9", "III-1", "III-5", "IV-1", "IV-17", "IV-2", "IV-21", "IV-23", "IV-24", "IV-25"], "match": "iv:IV:IV1680-297-16", "has_outline": false}}, {"type": "Feature", "geometry": {"type": "Point", "coordinates": [-0.05674, 51.493833]}, "properties": {"id": "lca:place/rotherhithe", "title": "Rotherhithe", "occurrences": 3, "first_year": 1477, "last_year": 1495, "variants": "Rederithe; Redereth; Rotherhythe", "volumes": ["III-4", "III-5", "IV-3"], "match": "gn:2639091", "has_outline": false}}, {"type": "Feature", "geometry": {"type": "Point", "coordinates": [4.48, 51.92]}, "properties": {"id": "lca:place/rotterdam", "title": "Rotterdam", "occurrences": 1, "first_year": 1456, "last_year": 1472, "variants": "Rotyrdam", "volumes": ["II-12", "III-2"], "match": "wd:Q34370", "has_outline": false}}, {"type": "Feature", "geometry": {"type": "Point", "coordinates": [1.090758, 49.442466]}, "properties": {"id": "lca:place/rouen", "title": "Rouen", "occurrences": 41, "first_year": 1431, "last_year": 1548, "variants": "Roane; Roan; Rothomago; Roen; Roone; Roon; Rone; Rothemago; Roand", "volumes": ["II-4", "II-5", "II-7", "II-9", "III-4", "III-5", "IV-12", "IV-13", "IV-14", "IV-15", "IV-17", "IV-19", "IV-20", "IV-21", "IV-3", "IV-4", "IV-8", "IV-9"], "match": "gn:2982652", "has_outline": false}}, {"type": "Feature", "geometry": {"type": "Point", "coordinates": [0.731902, 50.947456]}, "properties": {"id": "lca:place/rye", "title": "Rye", "occurrences": 12, "first_year": 1439, "last_year": 1547, "variants": "Rya", "volumes": ["II-7", "IV-16", "IV-17", "IV-18", "IV-19", "IV-20", "IV-4", "IV-9"], "match": "iv:IV:IV1680-303-04", "has_outline": false}}, {"type": "Feature", "geometry": {"type": "Point", "coordinates": [-3.98639, 48.68528]}, "properties": {"id": "lca:place/saint-pol-de-leon", "title": "Saint-Pol-de-Léon", "occurrences": 2, "first_year": 1490, "last_year": 1533, "variants": "Saint Poulle de Lyon; Seynt Pole de Lyons; Lyon; Lyons; St Pol de Léon", "volumes": ["IV-16", "IV-2"], "match": "gn:6431050", "has_outline": false}}, {"type": "Feature", "geometry": {"type": "Point", "coordinates": [0.811046, 51.782024]}, "properties": {"id": "lca:place/salcott", "title": "Salcott", "occurrences": 10, "first_year": 1536, "last_year": 1559, "variants": "Salcote; Salcot; Saltcot; Sallcote", "volumes": ["IV-18", "IV-19", "IV-21", "IV-23", "IV-24", "IV-25"], "match": "iv:IV:IV1680-303-40", "has_outline": false}}, {"type": "Feature", "geometry": {"type": "Point", "coordinates": [-4.224558, 50.400584]}, "properties": {"id": "lca:place/saltash", "title": "Saltash", "occurrences": 3, "first_year": 1480, "last_year": 1533, "variants": "Saltasshe", "volumes": ["III-5", "IV-16", "IV-3"], "match": "wd:Q1994597", "has_outline": false}}, {"type": "Feature", "geometry": {"type": "Point", "coordinates": [0.187982, 53.390368]}, "properties": {"id": "lca:place/saltfleet-haven", "title": "Saltfleet Haven", "occurrences": 1, "first_year": 1439, "last_year": 1440, "variants": "Saltflete Haven", "volumes": ["II-7"], "match": "wd:Q7406104", "has_outline": false}}, {"type": "Feature", "geometry": {"type": "Point", "coordinates": [-1.9806, 43.3183]}, "properties": {"id": "lca:place/san-sebastian", "title": "San Sebastian", "occurrences": 35, "first_year": 1445, "last_year": 1548, "variants": "Sabastian; Sancto Sebastiano; Sisto; Sent Sebastian; Seint Sebastian; Sent Sabastian; Sancto Sabestiano; Saint Sebastiano; Sancto Sebestiano; Sainct Sebastian", "volumes": ["II-9", "IV-10", "IV-11", "IV-12", "IV-13", "IV-14", "IV-15", "IV-16", "IV-17", "IV-21", "IV-4", "IV-9"], "match": "gn:6480362", "has_outline": false}}, {"type": "Feature", "geometry": {"type": "Point", "coordinates": [1.339128, 51.273481]}, "properties": {"id": "lca:place/sandwich", "title": "Sandwich", "occurrences": 271, "first_year": 1412, "last_year": 1545, "variants": "Sandewicum; Sandewych; Sandewich; Sandewhich; Sandwych; Sandewico; Sandewiche; Sandwicum; de Sandewico; Sandwico; Sandiwicum; Sandewici; Sandewyche; Saundewych; Sondwyche; Sandwyche; Sandwiche; Sandewych(e)", "volumes": ["II-10", "II-11", "II-12", "II-2", "II-3", "II-4", "II-5", "II-6", "II-7", "II-8", "II-9", "III-1", "III-2", "III-3", "III-4", "III-5", "IV-1", "IV-11", "IV-12", "IV-14", "IV-15", "IV-18", "IV-19", "IV-3", "IV-4", "IV-8", "IV-9"], "match": "iv:IV:IV1680-305-22", "has_outline": false}}, {"type": "Feature", "geometry": {"type": "Point", "coordinates": [-0.394642, 54.287733]}, "properties": {"id": "lca:place/scarborough", "title": "Scarborough", "occurrences": 1, "first_year": 1520, "last_year": 1524, "variants": "Scarburgh", "volumes": ["IV-14"], "match": "ohm:n2125778802", "has_outline": false}}, {"type": "Feature", "geometry": {"type": "Point", "coordinates": [4.272574, 52.106874]}, "properties": {"id": "lca:place/scheveningen", "title": "Scheveningen", "occurrences": 1, "first_year": 1438, "last_year": 1439, "variants": "Skevenyng in Holandia", "volumes": ["II-6"], "match": "ohm:n2139908150", "has_outline": false}}, {"type": "Feature", "geometry": {"type": "Point", "coordinates": [-0.2682, 50.8329]}, "properties": {"id": "lca:place/shoreham-by-sea", "title": "Shoreham-by-Sea", "occurrences": 1, "first_year": 1541, "last_year": 1559, "variants": "Shoreham; Shoram", "volumes": ["IV-19", "IV-25"], "match": "wd:Q770599", "has_outline": false}}, {"type": "Feature", "geometry": {"type": "Point", "coordinates": [1.59465, 52.206807]}, "properties": {"id": "lca:place/sizewell", "title": "Sizewell", "occurrences": 6, "first_year": 1477, "last_year": 1524, "variants": "Syswelle; Cesewell; Sysewelle; Siswelle; Sisewelle", "volumes": ["III-4", "III-6", "IV-1", "IV-12", "IV-14"], "match": "iv:IV:IV1680-317-24", "has_outline": false}}, {"type": "Feature", "geometry": {"type": "Point", "coordinates": [3.3883, 51.3089]}, "properties": {"id": "lca:place/sluis", "title": "Sluis", "occurrences": 53, "first_year": 1434, "last_year": 1559, "variants": "Skleuse; Sklewse; Scluse; Scleuse; lEscluse; der Scluse; le Scluse; Lescluse; Scluce; Slewis; Sluys", "volumes": ["II-10", "II-12", "II-5", "II-7", "II-9", "III-2", "III-5", "III-6", "IV-25"], "match": "wd:Q2065987", "has_outline": false}}, {"type": "Feature", "geometry": {"type": "Point", "coordinates": [-1.032305, 53.690537]}, "properties": {"id": "lca:place/snaith", "title": "Snaith", "occurrences": 4, "first_year": 1439, "last_year": 1446, "variants": "Snayth; Snayth in comitatu Eborum; Sneyth; Sneythe", "volumes": ["II-7", "II-9"], "match": "wd:Q681806", "has_outline": false}}, {"type": "Feature", "geometry": {"type": "Point", "coordinates": [0.444436, 51.32887]}, "properties": {"id": "lca:place/snodland", "title": "Snodland", "occurrences": 49, "first_year": 1487, "last_year": 1531, "variants": "Snodlond", "volumes": ["IV-1", "IV-10", "IV-12", "IV-14", "IV-15", "IV-2", "IV-3", "IV-4", "IV-8", "IV-9"], "match": "iv:IV:IV1680-320-57", "has_outline": false}}, {"type": "Feature", "geometry": {"type": "Point", "coordinates": [0.562834, 51.54668]}, "properties": {"id": "lca:place/south-beneflete", "title": "South Beneflete", "occurrences": 4, "first_year": 1477, "last_year": 1524, "variants": "Benflete; Beneflete; Benflet; Southbeaneflete", "volumes": ["III-4", "III-5", "IV-14"], "match": "wd:Q2347600", "has_outline": false}}, {"type": "Feature", "geometry": {"type": "Point", "coordinates": [-1.404123, 50.899656]}, "properties": {"id": "lca:place/southampton", "title": "Southampton", "occurrences": 276, "first_year": 1400, "last_year": 1550, "variants": "de Southamptonia; Hamtun; Hampton; Suthamptonia; Hamton; Southamton; Southamptoniam; Southamptonie; Southamptonia; Suthampton; Soutamton", "volumes": ["II-1", "II-12", "II-4", "II-9", "III-1", "III-2", "III-3", "III-4", "III-5", "IV-12", "IV-15", "IV-17", "IV-19", "IV-21", "IV-22", "IV-8"], "match": "iv:IV:IV1680-322-17", "has_outline": false}}, {"type": "Feature", "geometry": {"type": "Point", "coordinates": [1.667365, 52.325099]}, "properties": {"id": "lca:place/southwold", "title": "Southwold", "occurrences": 23, "first_year": 1445, "last_year": 1531, "variants": "Southwald; Suthwolde; Southwolde; Southold", "volumes": ["II-10", "II-9", "IV-1", "IV-10", "IV-14", "IV-15", "IV-3", "IV-4", "IV-9"], "match": "iv:IV:IV1680-322-58", "has_outline": false}}, {"type": "Feature", "geometry": {"type": "Point", "coordinates": [-1.66267, 43.38871]}, "properties": {"id": "lca:place/st-jean-de-luz", "title": "St Jean de Luz", "occurrences": 2, "first_year": 1531, "last_year": 1533, "variants": "Luke; Luce", "volumes": ["IV-16"], "match": "gn:2979309", "has_outline": false}}, {"type": "Feature", "geometry": {"type": "Point", "coordinates": [-2.026111, 48.649444]}, "properties": {"id": "lca:place/st-malo", "title": "St Malo", "occurrences": 1, "first_year": 1531, "last_year": 1533, "variants": "Seynt Malos", "volumes": ["IV-16"], "match": "wd:Q163108", "has_outline": false}}, {"type": "Feature", "geometry": {"type": "Point", "coordinates": [2.257656, 50.748345]}, "properties": {"id": "lca:place/st-omer", "title": "St Omer", "occurrences": 2, "first_year": 1456, "last_year": 1461, "variants": "Seynt Omers", "volumes": ["II-12"], "match": "tgn:7011062", "has_outline": false}}, {"type": "Feature", "geometry": {"type": "Point", "coordinates": [1.076091, 51.798767]}, "properties": {"id": "lca:place/st-osyth", "title": "St Osyth", "occurrences": 16, "first_year": 1450, "last_year": 1547, "variants": "Seintose; Seynt Osy; Seint Osies; Sent Osys; Sent Osiis; Seint Osys; Seint Tosez; Sancta Ositha; Sancto Ositho; Saynt Osy", "volumes": ["II-11", "III-2", "III-5", "III-6", "IV-1", "IV-13", "IV-14", "IV-18", "IV-2", "IV-20", "IV-4"], "match": "iv:IV:IV1680-264-58", "has_outline": false}}, {"type": "Feature", "geometry": {"type": "Point", "coordinates": [-0.090556, 51.5114]}, "properties": {"id": "lca:place/steelyard", "title": "Steelyard", "occurrences": 9, "first_year": 1480, "last_year": 1485, "variants": "Styleyerd; Steleyerd; Steleerd; Stileyerd", "volumes": ["III-5", "III-6"], "match": "wd:Q445923", "has_outline": false}}, {"type": "Feature", "geometry": {"type": "Point", "coordinates": [-5.516111, 35.973889]}, "properties": {"id": "lca:place/strait-of-gibraltar", "title": "Strait of Gibraltar", "occurrences": 52, "first_year": 1450, "last_year": 1559, "variants": "strictus de Marrok; Maroke; Marok; Marrok; Strictus de Marrok; strictus de Marrocke; Straits of Gibraltar; Strictus de Marock", "volumes": ["II-11", "III-2", "III-3", "III-4", "IV-12", "IV-14", "IV-15", "IV-16", "IV-17", "IV-18", "IV-19", "IV-2", "IV-23", "IV-25", "IV-4", "IV-6", "IV-8", "IV-9"], "match": "wd:Q36124", "has_outline": false}}, {"type": "Feature", "geometry": {"type": "Point", "coordinates": [0.475166, 51.392977]}, "properties": {"id": "lca:place/strood", "title": "Strood", "occurrences": 2, "first_year": 1525, "last_year": 1531, "variants": "Strode", "volumes": ["IV-15"], "match": "ohm:n2153337565", "has_outline": false}}, {"type": "Feature", "geometry": {"type": "Point", "coordinates": [4.833333, 53.083333]}, "properties": {"id": "lca:place/texel", "title": "Texel", "occurrences": 3, "first_year": 1438, "last_year": 1440, "variants": "Tasselle in Holandia; Tesselle in Holandia; Tesselle", "volumes": ["II-6", "II-7"], "match": "wd:Q47009672", "has_outline": false}}, {"type": "Feature", "geometry": {"type": "Point", "coordinates": [1.61471, 52.181758]}, "properties": {"id": "lca:place/thorpeness", "title": "Thorpeness", "occurrences": 11, "first_year": 1446, "last_year": 1524, "variants": "Thorpehight; Thorp; Thorphith; Thorpe; Thorphithe", "volumes": ["II-10", "II-11", "III-2", "IV-1", "IV-14"], "match": "iv:IV:IV1680-350-21", "has_outline": false}}, {"type": "Feature", "geometry": {"type": "Point", "coordinates": [5.4333, 51.8833]}, "properties": {"id": "lca:place/tiel", "title": "Tiel", "occurrences": 3, "first_year": 1465, "last_year": 1472, "variants": "Tele", "volumes": ["III-2"], "match": "wd:Q73221", "has_outline": false}}, {"type": "Feature", "geometry": {"type": "Point", "coordinates": [4.22083, 51.53167]}, "properties": {"id": "lca:place/tolen", "title": "Tolen", "occurrences": 4, "first_year": 1438, "last_year": 1440, "variants": "de Tolle in Zelandia; Tolle; Tolle in Zelandia; Tolne", "volumes": ["II-6", "II-7"], "match": "gn:2746351", "has_outline": false}}, {"type": "Feature", "geometry": {"type": "Point", "coordinates": [-3.466427, 50.68422]}, "properties": {"id": "lca:place/topsham", "title": "Topsham", "occurrences": 2, "first_year": 1490, "last_year": 1548, "variants": "", "volumes": ["IV-2", "IV-21"], "match": "wd:Q127095", "has_outline": false}}, {"type": "Feature", "geometry": {"type": "Point", "coordinates": [-0.076443, 51.507394]}, "properties": {"id": "lca:place/tower-of-london", "title": "Tower of London", "occurrences": 13, "first_year": 1439, "last_year": 1533, "variants": "la Tourr de London'; Towr; Tour; Turre London'; Torre; Toure; la Tour de London'; Turre; Towre; Tower; Turre London’", "volumes": ["II-10", "II-7", "IV-12", "IV-13", "IV-15", "IV-16", "IV-9"], "match": "wd:Q62378", "has_outline": false}}, {"type": "Feature", "geometry": {"type": "Point", "coordinates": [1.320848, 51.978669]}, "properties": {"id": "lca:place/trymley", "title": "Trymley", "occurrences": 1, "first_year": 1541, "last_year": 1545, "variants": "", "volumes": ["IV-19"], "match": "", "has_outline": false}}, {"type": "Feature", "geometry": {"type": "Point", "coordinates": [-1.421442, 55.017862]}, "properties": {"id": "lca:place/tynemouth", "title": "Tynemouth", "occurrences": 1, "first_year": 1519, "last_year": 1520, "variants": "Tynmouthe", "volumes": ["IV-13"], "match": "", "has_outline": false}}, {"type": "Feature", "geometry": {"type": "Point", "coordinates": [3.668409, 51.548726]}, "properties": {"id": "lca:place/veere", "title": "Veere", "occurrences": 4, "first_year": 1438, "last_year": 1481, "variants": "Camfer; Veer; la Veer", "volumes": ["II-6", "II-7", "III-2", "III-3", "III-5"], "match": "ohm:n2153114618", "has_outline": false}}, {"type": "Feature", "geometry": {"type": "Point", "coordinates": [12.331944, 45.439722]}, "properties": {"id": "lca:place/venice", "title": "Venice", "occurrences": 65, "first_year": 1390, "last_year": 1559, "variants": "Venicie; Venisiam; Venicia; Venesia; Venisie; Venisia; Venecia; Venesie; Seniore de Venecia; Venetia; Venyce", "volumes": ["I-6", "II-11", "II-12", "II-3", "II-5", "II-6", "II-7", "II-8", "III-5", "IV-14", "IV-17", "IV-19", "IV-2", "IV-20", "IV-24", "IV-25"], "match": "wd:Q641", "has_outline": false}}, {"type": "Feature", "geometry": {"type": "Point", "coordinates": [-8.83287, 41.69323]}, "properties": {"id": "lca:place/viana-do-castelo", "title": "Viana do Castelo", "occurrences": 21, "first_year": 1480, "last_year": 1547, "variants": "Viana; Lawe de Viana; Vyana; Viano; Viana do Castello", "volumes": ["III-5", "IV-11", "IV-13", "IV-16", "IV-20"], "match": "gn:2732773", "has_outline": false}}, {"type": "Feature", "geometry": {"type": "Point", "coordinates": [-8.74516, 41.35326]}, "properties": {"id": "lca:place/vila-do-conde", "title": "Vila do Conde", "occurrences": 2, "first_year": 1541, "last_year": 1547, "variants": "Villa Cunda; Villa Decondo", "volumes": ["IV-19", "IV-20"], "match": "gn:2732649", "has_outline": false}}, {"type": "Feature", "geometry": {"type": "Point", "coordinates": [3.583333, 51.45]}, "properties": {"id": "lca:place/vlissingen", "title": "Vlissingen", "occurrences": 57, "first_year": 1438, "last_year": 1559, "variants": "Flysshing; Flissing in Selandia; Flisshing; Flysshing in Zelandia; Flissyng; Flissing; Flisschyng; Flyshing; Flyshyng; Flyssyng; Vlissyng; Flysshingge; Flisshynge; Flisshyng; Flysshyng; Flusshyng; Flushing; Flusyng; Flushinge; Flushyne; Flushyng; Flusing; Flusshynge; Flussyng", "volumes": ["II-10", "II-11", "II-6", "II-7", "II-9", "III-1", "III-2", "III-5", "III-6", "IV-14", "IV-16", "IV-17", "IV-20", "IV-21", "IV-25"], "match": "wd:Q10084", "has_outline": false}}, {"type": "Feature", "geometry": {"type": "Point", "coordinates": [0.82076, 51.54314]}, "properties": {"id": "lca:place/wakeryng", "title": "Wakeryng", "occurrences": 1, "first_year": 1520, "last_year": 1524, "variants": "", "volumes": ["IV-14"], "match": "gn:7293537", "has_outline": false}}, {"type": "Feature", "geometry": {"type": "Point", "coordinates": [1.651244, 52.307609]}, "properties": {"id": "lca:place/walberswick", "title": "Walberswick", "occurrences": 37, "first_year": 1456, "last_year": 1524, "variants": "Walbourswyke; Walbourswyk; Walberswik; Walbersewek; Walberswyke; Walberswyk; Westende; Walbreswyke", "volumes": ["II-12", "III-4", "III-6", "IV-1", "IV-10", "IV-12", "IV-14", "IV-3", "IV-4", "IV-9"], "match": "iv:IV:IV1680-368-45", "has_outline": false}}, {"type": "Feature", "geometry": {"type": "Point", "coordinates": [1.3985, 51.2043]}, "properties": {"id": "lca:place/walmer", "title": "Walmer", "occurrences": 1, "first_year": "", "last_year": "", "variants": "Walmere", "volumes": [], "match": "wd:Q2551894", "has_outline": false}}, {"type": "Feature", "geometry": {"type": "Point", "coordinates": [2.857261, 51.206252]}, "properties": {"id": "lca:place/walravonshire", "title": "Walravonshire", "occurrences": 1, "first_year": 1465, "last_year": 1472, "variants": "", "volumes": ["III-2"], "match": "", "has_outline": false}}, {"type": "Feature", "geometry": {"type": "Point", "coordinates": [1.268, 51.848]}, "properties": {"id": "lca:place/walton-on-the-naze", "title": "Walton-on-the-Naze", "occurrences": 3, "first_year": 1477, "last_year": 1479, "variants": "Walton; Walton possibly West Walton", "volumes": ["III-4"], "match": "wd:Q1818988", "has_outline": false}}, {"type": "Feature", "geometry": {"type": "Point", "coordinates": [0.292253, 51.472242]}, "properties": {"id": "lca:place/west-thurrock", "title": "West Thurrock", "occurrences": 1, "first_year": 1507, "last_year": 1508, "variants": "West Thurrok", "volumes": ["IV-8"], "match": "gn:2634251", "has_outline": false}}, {"type": "Feature", "geometry": {"type": "Point", "coordinates": [3.70972, 51.67583]}, "properties": {"id": "lca:place/westenschouwen", "title": "Westenschouwen", "occurrences": 5, "first_year": 1438, "last_year": 1446, "variants": "Westenscowe in Zelandia; Westenscowe; Westonscowe; Westscowe", "volumes": ["II-6", "II-9"], "match": "gn:2744774", "has_outline": false}}, {"type": "Feature", "geometry": {"type": "Point", "coordinates": [3.44011, 51.527559]}, "properties": {"id": "lca:place/westkapelle", "title": "Westkapelle", "occurrences": 1, "first_year": 1439, "last_year": 1440, "variants": "Westcable in Zelandia", "volumes": ["II-7"], "match": "ohm:n2153114619", "has_outline": false}}, {"type": "Feature", "geometry": {"type": "Point", "coordinates": [-2.460714, 50.614299]}, "properties": {"id": "lca:place/weymouth", "title": "Weymouth", "occurrences": 2, "first_year": 1480, "last_year": 1481, "variants": "Weymothe; Weymoth", "volumes": ["III-5"], "match": "wd:Q661619", "has_outline": false}}, {"type": "Feature", "geometry": {"type": "Point", "coordinates": [-0.627687, 54.486546]}, "properties": {"id": "lca:place/whitby", "title": "Whitby", "occurrences": 1, "first_year": 1438, "last_year": 1439, "variants": "Whytby", "volumes": ["II-6"], "match": "ohm:n2126225269", "has_outline": false}}, {"type": "Feature", "geometry": {"type": "Point", "coordinates": [4.594722, 52.491944]}, "properties": {"id": "lca:place/wijk-aan-zee", "title": "Wijk aan Zee", "occurrences": 12, "first_year": 1438, "last_year": 1472, "variants": "der Wyke in Holandia; der Wike in Holandia; Wyke; Wyke in Holandia; der Wyk; de Wyke; de Wyk in Holandia; de Wyk; Wike; Wike aan Zee; Wike in Holandia; Wyk in Holandia", "volumes": ["II-6", "II-7", "III-2"], "match": "wd:Q913649", "has_outline": false}}, {"type": "Feature", "geometry": {"type": "Point", "coordinates": [0.701902, 50.921171]}, "properties": {"id": "lca:place/winchelsea", "title": "Winchelsea", "occurrences": 38, "first_year": 1431, "last_year": 1524, "variants": "Winchelse; Wynchelse; Winchelsey; de Wynchelse; Wynchelseye; de Winchelsee; Wynchelsse; Wynchylse; Wynchelsey; Winchelsie; Wynchelsie; Winchelsei", "volumes": ["II-10", "II-11", "II-4", "II-5", "II-6", "II-7", "II-9", "III-5", "IV-14", "IV-2", "IV-3", "IV-5"], "match": "iv:IV:IV1680-390-18", "has_outline": false}}, {"type": "Feature", "geometry": {"type": "Point", "coordinates": [0.959367, 51.854829]}, "properties": {"id": "lca:place/wivenhoe", "title": "Wivenhoe", "occurrences": 1, "first_year": 1487, "last_year": 1490, "variants": "Wyvenho", "volumes": ["IV-1"], "match": "gn:2633717", "has_outline": false}}, {"type": "Feature", "geometry": {"type": "Point", "coordinates": [1.039137, 52.943682]}, "properties": {"id": "lca:place/wiveton", "title": "Wiveton", "occurrences": 1, "first_year": 1520, "last_year": 1524, "variants": "Wyfeton", "volumes": ["IV-14"], "match": "gn:2633716", "has_outline": false}}, {"type": "Feature", "geometry": {"type": "Point", "coordinates": [1.297822, 52.093164]}, "properties": {"id": "lca:place/woodbridge", "title": "Woodbridge", "occurrences": 3, "first_year": 1465, "last_year": 1472, "variants": "Wodbryg; Wodbrygge; Wodbruge; Wodbryg(ge)", "volumes": ["III-2"], "match": "wd:Q1021350", "has_outline": false}}, {"type": "Feature", "geometry": {"type": "Point", "coordinates": [0.058299, 51.489173]}, "properties": {"id": "lca:place/woolwich", "title": "Woolwich", "occurrences": 6, "first_year": 1507, "last_year": 1547, "variants": "Wolwych; Wolwich; Wolwyche; Wollwich", "volumes": ["IV-20", "IV-8", "IV-9"], "match": "iv:IV:IV1680-396-11", "has_outline": false}}, {"type": "Feature", "geometry": {"type": "Point", "coordinates": [1.734783, 52.601826]}, "properties": {"id": "lca:place/yarmouth", "title": "Yarmouth", "occurrences": 10, "first_year": 1445, "last_year": 1533, "variants": "Yermoth; Yermouth; Yermouthe; Wight", "volumes": ["II-9", "III-5", "IV-12", "IV-14", "IV-16", "IV-3", "IV-4", "IV-8"], "match": "iv:IV:IV1680-403-17", "has_outline": false}}, {"type": "Feature", "geometry": {"type": "Point", "coordinates": [-1.087028, 53.960614]}, "properties": {"id": "lca:place/york", "title": "York", "occurrences": 8, "first_year": 1439, "last_year": 1456, "variants": "Yorke; Eborum; York(e); the Netherlands", "volumes": ["II-10", "II-11", "II-7", "II-9"], "match": "iv:IV:IV1680-404-39", "has_outline": false}}, {"type": "Feature", "geometry": {"type": "Point", "coordinates": [3.9164, 51.6497]}, "properties": {"id": "lca:place/zierikzee", "title": "Zierikzee", "occurrences": 8, "first_year": 1438, "last_year": 1461, "variants": "Selice; Serykese; Seryse; Serisee; Zerikcee", "volumes": ["II-11", "II-12", "II-6"], "match": "wd:Q81076", "has_outline": false}}, {"type": "Feature", "geometry": {"type": "Point", "coordinates": [-2.25609, 43.298002]}, "properties": {"id": "lca:place/zumaya", "title": "Zumaya", "occurrences": 3, "first_year": 1512, "last_year": 1524, "variants": "Summaya; Summaya in Spain", "volumes": ["IV-10", "IV-14"], "match": "tgn:7031470", "has_outline": false}}]}