{"type": "FeatureCollection", "features": [{"type": "Feature", "geometry": {"type": "LineString", "coordinates": [[1.6042, 52.1547], [1.60298, 52.17469], [1.6023, 52.19452], [1.60218, 52.2142], [1.6026, 52.23374], [1.60357, 52.25311], [1.60508, 52.27234], [1.60714, 52.29141], [1.60975, 52.31034], [1.61291, 52.32911], [1.61661, 52.34772], [1.62086, 52.36619], [1.62566, 52.3845], [1.631, 52.40266], [1.63689, 52.42067], [1.64333, 52.43853], [1.65032, 52.45624], [1.65785, 52.47379], [1.66593, 52.49119], [1.67456, 52.50844], [1.68373, 52.52553], [1.69345, 52.54248], [1.70372, 52.55927], [1.71454, 52.57591], [1.7259, 52.5924]]}, "properties": {"member": "Aldeburgh", "head": "Yarmouth, Great", "source": "TNA E 159/350 (Exchequer returns, 1565)"}}, {"type": "Feature", "geometry": {"type": "LineString", "coordinates": [[-4.1919, 51.0536], [-4.15956, 51.04913], [-4.12763, 51.04383], [-4.09613, 51.03771], [-4.06504, 51.03076], [-4.03437, 51.02299], [-4.00412, 51.01439], [-3.97429, 51.00497], [-3.94488, 50.99471], [-3.91589, 50.98364], [-3.88732, 50.97174], [-3.85917, 50.95901], [-3.83143, 50.94545], [-3.80412, 50.93107], [-3.77722, 50.91587], [-3.75074, 50.89984], [-3.72468, 50.88298], [-3.69904, 50.8653], [-3.67382, 50.84679], [-3.64902, 50.82746], [-3.62464, 50.8073], [-3.60068, 50.78631], [-3.57713, 50.7645], [-3.55401, 50.74186], [-3.5313, 50.7184]]}, "properties": {"member": "Appledore", "head": "Exeter", "source": "TNA E 159/350 (Exchequer returns, 1565)"}}, {"type": "Feature", "geometry": {"type": "LineString", "coordinates": [[-0.5524, 50.8541], [-0.56291, 50.84885], [-0.57347, 50.84392], [-0.58408, 50.83933], [-0.59472, 50.83506], [-0.60541, 50.83113], [-0.61614, 50.82753], [-0.62692, 50.82426], [-0.63774, 50.82131], [-0.64861, 50.8187], [-0.65951, 50.81642], [-0.67046, 50.81447], [-0.68146, 50.81285], [-0.6925, 50.81157], [-0.70358, 50.81061], [-0.71471, 50.80998], [-0.72587, 50.80968], [-0.73709, 50.80971], [-0.74834, 50.81008], [-0.75964, 50.81077], [-0.77099, 50.8118], [-0.78238, 50.81315], [-0.79381, 50.81484], [-0.80528, 50.81685], [-0.8168, 50.8192]]}, "properties": {"member": "Arundel", "head": "Chichester", "source": "TNA E 159/350 (Exchequer returns, 1565)"}}, {"type": "Feature", "geometry": {"type": "LineString", "coordinates": [[-4.2053, 51.0194], [-4.17289, 51.01655], [-4.14086, 51.01285], [-4.1092, 51.00831], [-4.07792, 51.00293], [-4.04701, 50.99671], [-4.01648, 50.98964], [-3.98633, 50.98174], [-3.95655, 50.97299], [-3.92715, 50.96339], [-3.89813, 50.95296], [-3.86948, 50.94168], [-3.84121, 50.92956], [-3.81331, 50.9166], [-3.7858, 50.90279], [-3.75865, 50.88814], [-3.73189, 50.87265], [-3.7055, 50.85632], [-3.67948, 50.83915], [-3.65384, 50.82113], [-3.62858, 50.80227], [-3.6037, 50.78256], [-3.57919, 50.76202], [-3.55506, 50.74063], [-3.5313, 50.7184]]}, "properties": {"member": "Bideford", "head": "Exeter", "source": "TNA E 159/350 (Exchequer returns, 1565)"}}, {"type": "Feature", "geometry": {"type": "LineString", "coordinates": [[1.0136, 52.9557], [1.0485, 52.9508], [1.08295, 52.94501], [1.11694, 52.93833], [1.15048, 52.93077], [1.18357, 52.92231], [1.2162, 52.91296], [1.24837, 52.90271], [1.2801, 52.89158], [1.31137, 52.87956], [1.34218, 52.86665], [1.37254, 52.85285], [1.40245, 52.83816], [1.4319, 52.82257], [1.4609, 52.8061], [1.48944, 52.78874], [1.51753, 52.77048], [1.54517, 52.75134], [1.57235, 52.73131], [1.59908, 52.71038], [1.62535, 52.68856], [1.65117, 52.66586], [1.67653, 52.64226], [1.70144, 52.61778], [1.7259, 52.5924]]}, "properties": {"member": "Blakeney", "head": "Yarmouth, Great", "source": "TNA E 159/350 (Exchequer returns, 1565)"}}, {"type": "Feature", "geometry": {"type": "LineString", "coordinates": [[-3.1061, 54.9296], [-3.09956, 54.93069], [-3.09305, 54.9316], [-3.08657, 54.93232], [-3.08012, 54.93285], [-3.0737, 54.9332], [-3.06731, 54.93337], [-3.06096, 54.93335], [-3.05463, 54.93314], [-3.04834, 54.93275], [-3.04208, 54.93217], [-3.03585, 54.9314], [-3.02965, 54.93046], [-3.02348, 54.92932], [-3.01735, 54.928], [-3.01124, 54.9265], [-3.00517, 54.92481], [-2.99912, 54.92293], [-2.99311, 54.92087], [-2.98713, 54.91862], [-2.98118, 54.91619], [-2.97527, 54.91357], [-2.96938, 54.91076], [-2.96352, 54.90777], [-2.9577, 54.9046]]}, "properties": {"member": "Boustead Hill", "head": "Carlisle", "source": "TNA E 159/350 (Exchequer returns, 1565)"}}, {"type": "Feature", "geometry": {"type": "LineString", "coordinates": [[-0.1892, 54.0814], [-0.18847, 54.06592], [-0.18815, 54.05057], [-0.18826, 54.03533], [-0.1888, 54.02023], [-0.18975, 54.00524], [-0.19113, 53.99038], [-0.19292, 53.97564], [-0.19514, 53.96103], [-0.19778, 53.94654], [-0.20084, 53.93217], [-0.20433, 53.91793], [-0.20823, 53.90381], [-0.21256, 53.88981], [-0.21731, 53.87594], [-0.22248, 53.86219], [-0.22807, 53.84856], [-0.23409, 53.83506], [-0.24053, 53.82168], [-0.24738, 53.80843], [-0.25466, 53.79529], [-0.26236, 53.78228], [-0.27049, 53.7694], [-0.27903, 53.75664], [-0.288, 53.744]]}, "properties": {"member": "Bridlington", "head": "Hull", "source": "TNA E 159/350 (Exchequer returns, 1565)"}}, {"type": "Feature", "geometry": {"type": "LineString", "coordinates": [[1.0405, 52.9547], [1.07427, 52.94946], [1.10758, 52.94336], [1.14044, 52.9364], [1.17285, 52.92859], [1.2048, 52.91992], [1.23631, 52.91039], [1.26735, 52.90001], [1.29795, 52.88877], [1.32809, 52.87667], [1.35778, 52.86371], [1.38702, 52.8499], [1.41581, 52.83524], [1.44414, 52.81971], [1.47202, 52.80333], [1.49944, 52.78609], [1.52642, 52.768], [1.55294, 52.74905], [1.57901, 52.72924], [1.60462, 52.70857], [1.62978, 52.68705], [1.65449, 52.66468], [1.67875, 52.64144], [1.70255, 52.61735], [1.7259, 52.5924]]}, "properties": {"member": "Cley", "head": "Yarmouth, Great", "source": "TNA E 159/350 (Exchequer returns, 1565)"}}, {"type": "Feature", "geometry": {"type": "LineString", "coordinates": [[0.9404, 51.8708], [0.94664, 51.88143], [0.95311, 51.89179], [0.9598, 51.90189], [0.96673, 51.91173], [0.97388, 51.92129], [0.98125, 51.93059], [0.98886, 51.93963], [0.99669, 51.9484], [1.00475, 51.9569], [1.01303, 51.96514], [1.02155, 51.97312], [1.03029, 51.98082], [1.03926, 51.98827], [1.04845, 51.99544], [1.05787, 52.00235], [1.06752, 52.009], [1.0774, 52.01538], [1.0875, 52.02149], [1.09783, 52.02734], [1.10839, 52.03292], [1.11918, 52.03824], [1.13019, 52.04329], [1.14143, 52.04808], [1.1529, 52.0526]]}, "properties": {"member": "Colchester", "head": "Ipswich", "source": "TNA E 159/350 (Exchequer returns, 1565)"}}, {"type": "Feature", "geometry": {"type": "LineString", "coordinates": [[1.3252, 51.1296], [1.32377, 51.13593], [1.32252, 51.14225], [1.32146, 51.14854], [1.32058, 51.15481], [1.31988, 51.16106], [1.31937, 51.16729], [1.31904, 51.1735], [1.31889, 51.1797], [1.31892, 51.18587], [1.31914, 51.19202], [1.31954, 51.19815], [1.32012, 51.20426], [1.32089, 51.21035], [1.32184, 51.21642], [1.32297, 51.22247], [1.32429, 51.2285], [1.32579, 51.2345], [1.32747, 51.24049], [1.32933, 51.24646], [1.33138, 51.25241], [1.33361, 51.25834], [1.33602, 51.26425], [1.33862, 51.27013], [1.3414, 51.276]]}, "properties": {"member": "Dover", "head": "Sandwich", "source": "TNA E 159/350 (Exchequer returns, 1565)"}}, {"type": "Feature", "geometry": {"type": "LineString", "coordinates": [[1.6324, 52.2787], [1.63179, 52.29311], [1.63156, 52.30741], [1.63174, 52.32159], [1.6323, 52.33566], [1.63325, 52.34961], [1.6346, 52.36344], [1.63634, 52.37715], [1.63847, 52.39075], [1.64099, 52.40423], [1.64391, 52.41759], [1.64722, 52.43084], [1.65092, 52.44396], [1.65501, 52.45698], [1.65949, 52.46987], [1.66437, 52.48265], [1.66964, 52.49531], [1.6753, 52.50786], [1.68135, 52.52029], [1.68779, 52.5326], [1.69463, 52.54479], [1.70186, 52.55687], [1.70948, 52.56883], [1.71749, 52.58067], [1.7259, 52.5924]]}, "properties": {"member": "Dunwich", "head": "Yarmouth, Great", "source": "TNA E 159/350 (Exchequer returns, 1565)"}}, {"type": "Feature", "geometry": {"type": "LineString", "coordinates": [[-3.5009, 54.7134], [-3.48102, 54.72918], [-3.46089, 54.74427], [-3.44053, 54.75869], [-3.41993, 54.77243], [-3.39909, 54.78549], [-3.37801, 54.79787], [-3.35669, 54.80957], [-3.33513, 54.82059], [-3.31333, 54.83093], [-3.2913, 54.8406], [-3.26902, 54.84958], [-3.24651, 54.85789], [-3.22376, 54.86552], [-3.20076, 54.87246], [-3.17753, 54.87873], [-3.15406, 54.88432], [-3.13035, 54.88923], [-3.10641, 54.89347], [-3.08222, 54.89702], [-3.05779, 54.89989], [-3.03313, 54.90209], [-3.00822, 54.9036], [-2.98308, 54.90444], [-2.9577, 54.9046]]}, "properties": {"member": "Maryport", "head": "Carlisle", "source": "TNA E 159/350 (Exchequer returns, 1565)"}}, {"type": "Feature", "geometry": {"type": "LineString", "coordinates": [[0.8941, 51.336], [0.9136, 51.33993], [0.93302, 51.3433], [0.95237, 51.34611], [0.97165, 51.34837], [0.99085, 51.35006], [1.00997, 51.35119], [1.02902, 51.35177], [1.048, 51.35178], [1.0669, 51.35124], [1.08572, 51.35014], [1.10447, 51.34848], [1.12315, 51.34626], [1.14175, 51.34348], [1.16027, 51.34014], [1.17872, 51.33624], [1.1971, 51.33178], [1.2154, 51.32677], [1.23362, 51.32119], [1.25177, 51.31506], [1.26985, 51.30837], [1.28785, 51.30111], [1.30577, 51.2933], [1.32363, 51.28493], [1.3414, 51.276]]}, "properties": {"member": "Faversham", "head": "Sandwich", "source": "TNA E 159/350 (Exchequer returns, 1565)"}}, {"type": "Feature", "geometry": {"type": "LineString", "coordinates": [[-0.2841, 54.2096], [-0.27757, 54.19014], [-0.27162, 54.17069], [-0.26625, 54.15125], [-0.26147, 54.13181], [-0.25727, 54.11237], [-0.25365, 54.09294], [-0.25061, 54.07351], [-0.24815, 54.05409], [-0.24628, 54.03467], [-0.24498, 54.01526], [-0.24427, 53.99585], [-0.24415, 53.97645], [-0.2446, 53.95705], [-0.24563, 53.93766], [-0.24725, 53.91827], [-0.24945, 53.89889], [-0.25223, 53.87951], [-0.2556, 53.86014], [-0.25954, 53.84077], [-0.26407, 53.82141], [-0.26918, 53.80205], [-0.27487, 53.78269], [-0.28114, 53.76334], [-0.288, 53.744]]}, "properties": {"member": "Filey", "head": "Hull", "source": "TNA E 159/350 (Exchequer returns, 1565)"}}, {"type": "Feature", "geometry": {"type": "LineString", "coordinates": [[-0.1178, 54.1033], [-0.11973, 54.08588], [-0.1221, 54.06868], [-0.12493, 54.05169], [-0.1282, 54.03491], [-0.13192, 54.01834], [-0.1361, 54.00199], [-0.14072, 53.98585], [-0.14579, 53.96992], [-0.15131, 53.9542], [-0.15728, 53.9387], [-0.1637, 53.92341], [-0.17056, 53.90833], [-0.17788, 53.89347], [-0.18564, 53.87882], [-0.19386, 53.86438], [-0.20252, 53.85015], [-0.21164, 53.83614], [-0.2212, 53.82234], [-0.23121, 53.80875], [-0.24167, 53.79537], [-0.25258, 53.78221], [-0.26394, 53.76926], [-0.27574, 53.75652], [-0.288, 53.744]]}, "properties": {"member": "Flamborough", "head": "Hull", "source": "TNA E 159/350 (Exchequer returns, 1565)"}}, {"type": "Feature", "geometry": {"type": "LineString", "coordinates": [[-0.0751, 53.5781], [-0.08636, 53.58195], [-0.0974, 53.58607], [-0.10824, 53.59045], [-0.11888, 53.59511], [-0.1293, 53.60002], [-0.13952, 53.6052], [-0.14953, 53.61065], [-0.15934, 53.61637], [-0.16894, 53.62235], [-0.17832, 53.6286], [-0.18751, 53.63511], [-0.19648, 53.64189], [-0.20525, 53.64893], [-0.21381, 53.65625], [-0.22216, 53.66382], [-0.23031, 53.67167], [-0.23824, 53.67978], [-0.24597, 53.68815], [-0.2535, 53.6968], [-0.26081, 53.70571], [-0.26792, 53.71488], [-0.27482, 53.72432], [-0.28151, 53.73403], [-0.288, 53.744]]}, "properties": {"member": "Grimsby", "head": "Hull", "source": "TNA E 159/350 (Exchequer returns, 1565)"}}, {"type": "Feature", "geometry": {"type": "LineString", "coordinates": [[-1.2072, 54.6999], [-1.22745, 54.70555], [-1.24736, 54.7117], [-1.26694, 54.71833], [-1.28617, 54.72546], [-1.30507, 54.73307], [-1.32362, 54.74118], [-1.34184, 54.74978], [-1.35972, 54.75887], [-1.37726, 54.76845], [-1.39446, 54.77851], [-1.41133, 54.78907], [-1.42785, 54.80012], [-1.44403, 54.81167], [-1.45988, 54.8237], [-1.47539, 54.83622], [-1.49055, 54.84923], [-1.50538, 54.86274], [-1.51987, 54.87673], [-1.53403, 54.89122], [-1.54784, 54.90619], [-1.56131, 54.92166], [-1.57445, 54.93761], [-1.58724, 54.95406], [-1.5997, 54.971]]}, "properties": {"member": "Hartlepool", "head": "Newcastle", "source": "TNA E 159/350 (Exchequer returns, 1565)"}}, {"type": "Feature", "geometry": {"type": "LineString", "coordinates": [[0.5729, 50.8524], [0.51547, 50.83104], [0.458, 50.81142], [0.40049, 50.79353], [0.34294, 50.77738], [0.28535, 50.76297], [0.22772, 50.7503], [0.17004, 50.73936], [0.11232, 50.73016], [0.05456, 50.72269], [-0.00324, 50.71697], [-0.06108, 50.71298], [-0.11896, 50.71073], [-0.17689, 50.71021], [-0.23485, 50.71143], [-0.29286, 50.71439], [-0.35091, 50.71909], [-0.409, 50.72552], [-0.46713, 50.7337], [-0.52531, 50.7436], [-0.58352, 50.75525], [-0.64178, 50.76863], [-0.70008, 50.78375], [-0.75842, 50.80061], [-0.8168, 50.8192]]}, "properties": {"member": "Hastings", "head": "Chichester", "source": "State Papers survey, 1565"}}, {"type": "Feature", "geometry": {"type": "LineString", "coordinates": [[1.0804, 51.0649], [1.00488, 51.02739], [0.92906, 50.99225], [0.85292, 50.95949], [0.77649, 50.92909], [0.69974, 50.90107], [0.62268, 50.87541], [0.54532, 50.85213], [0.46766, 50.83122], [0.38968, 50.81269], [0.3114, 50.79652], [0.23281, 50.78273], [0.15391, 50.7713], [0.07471, 50.76225], [-0.0048, 50.75557], [-0.08462, 50.75126], [-0.16474, 50.74932], [-0.24518, 50.74976], [-0.32592, 50.75256], [-0.40696, 50.75774], [-0.48832, 50.76529], [-0.56998, 50.77521], [-0.65194, 50.7875], [-0.73422, 50.80217], [-0.8168, 50.8192]]}, "properties": {"member": "Hythe", "head": "Chichester", "source": "TNA E 159/350 (Exchequer returns, 1565)"}}, {"type": "Feature", "geometry": {"type": "LineString", "coordinates": [[-4.116, 51.2091], [-4.08458, 51.19706], [-4.05378, 51.18429], [-4.02359, 51.17079], [-3.99402, 51.15655], [-3.96505, 51.14159], [-3.9367, 51.12589], [-3.90897, 51.10947], [-3.88184, 51.09231], [-3.85533, 51.07442], [-3.82944, 51.0558], [-3.80416, 51.03645], [-3.77949, 51.01637], [-3.75543, 50.99556], [-3.73199, 50.97402], [-3.70916, 50.95175], [-3.68694, 50.92874], [-3.66534, 50.90501], [-3.64435, 50.88054], [-3.62398, 50.85535], [-3.60421, 50.82942], [-3.58507, 50.80276], [-3.56653, 50.77537], [-3.54861, 50.74725], [-3.5313, 50.7184]]}, "properties": {"member": "Ilfracombe", "head": "Exeter", "source": "TNA E 159/350 (Exchequer returns, 1565)"}}, {"type": "Feature", "geometry": {"type": "LineString", "coordinates": [[-4.455, 50.3562], [-4.46224, 50.35297], [-4.46949, 50.34997], [-4.47677, 50.34719], [-4.48407, 50.34463], [-4.49138, 50.3423], [-4.49872, 50.34019], [-4.50607, 50.3383], [-4.51344, 50.33664], [-4.52084, 50.3352], [-4.52825, 50.33399], [-4.53568, 50.333], [-4.54314, 50.33223], [-4.55061, 50.33169], [-4.5581, 50.33137], [-4.56561, 50.33128], [-4.57314, 50.33141], [-4.58069, 50.33176], [-4.58827, 50.33234], [-4.59586, 50.33314], [-4.60346, 50.33416], [-4.61109, 50.33541], [-4.61874, 50.33688], [-4.62641, 50.33858], [-4.6341, 50.3405]]}, "properties": {"member": "Looe", "head": "Fowey", "source": "TNA E 159/350 (Exchequer returns, 1565)"}}, {"type": "Feature", "geometry": {"type": "LineString", "coordinates": [[-2.2471, 50.6181], [-2.23767, 50.62574], [-2.22813, 50.63305], [-2.21846, 50.64004], [-2.20868, 50.6467], [-2.19879, 50.65304], [-2.18877, 50.65906], [-2.17864, 50.66476], [-2.16839, 50.67013], [-2.15802, 50.67518], [-2.14753, 50.6799], [-2.13693, 50.6843], [-2.12621, 50.68838], [-2.11537, 50.69214], [-2.10442, 50.69557], [-2.09334, 50.69868], [-2.08215, 50.70146], [-2.07085, 50.70392], [-2.05942, 50.70606], [-2.04788, 50.70788], [-2.03622, 50.70937], [-2.02444, 50.71054], [-2.01254, 50.71138], [-2.00053, 50.7119], [-1.9884, 50.7121]]}, "properties": {"member": "Lulworth", "head": "Poole", "source": "TNA E 159/350 (Exchequer returns, 1565)"}}, {"type": "Feature", "geometry": {"type": "LineString", "coordinates": [[-2.9394, 50.7201], [-2.89966, 50.73344], [-2.85993, 50.74559], [-2.82021, 50.75655], [-2.7805, 50.76632], [-2.7408, 50.7749], [-2.70111, 50.78229], [-2.66143, 50.7885], [-2.62176, 50.79351], [-2.5821, 50.79734], [-2.54245, 50.79998], [-2.50281, 50.80143], [-2.46318, 50.80169], [-2.42356, 50.80076], [-2.38395, 50.79865], [-2.34435, 50.79534], [-2.30476, 50.79085], [-2.26518, 50.78516], [-2.22561, 50.77829], [-2.18605, 50.77023], [-2.1465, 50.76098], [-2.10696, 50.75055], [-2.06743, 50.73892], [-2.02791, 50.7261], [-1.9884, 50.7121]]}, "properties": {"member": "Lyme Regis", "head": "Poole", "source": "TNA E 159/350 (Exchequer returns, 1565)"}}, {"type": "Feature", "geometry": {"type": "LineString", "coordinates": [[0.6851, 51.7321], [0.69998, 51.75218], [0.71527, 51.77167], [0.73096, 51.79058], [0.74704, 51.80891], [0.76353, 51.82665], [0.78042, 51.8438], [0.7977, 51.86037], [0.81539, 51.87636], [0.83348, 51.89176], [0.85197, 51.90657], [0.87086, 51.92081], [0.89016, 51.93445], [0.90985, 51.94751], [0.92994, 51.95999], [0.95043, 51.97188], [0.97133, 51.98319], [0.99262, 51.99391], [1.01432, 52.00405], [1.03641, 52.0136], [1.05891, 52.02257], [1.08181, 52.03096], [1.1051, 52.03876], [1.1288, 52.04597], [1.1529, 52.0526]]}, "properties": {"member": "Maldon", "head": "Ipswich", "source": "TNA E 159/350 (Exchequer returns, 1565)"}}, {"type": "Feature", "geometry": {"type": "LineString", "coordinates": [[0.0479, 50.7974], [0.01156, 50.78588], [-0.02476, 50.77544], [-0.06105, 50.76608], [-0.09731, 50.7578], [-0.13354, 50.7506], [-0.16975, 50.74448], [-0.20593, 50.73945], [-0.24208, 50.73549], [-0.2782, 50.73262], [-0.3143, 50.73082], [-0.35037, 50.73011], [-0.38641, 50.73048], [-0.42243, 50.73193], [-0.45842, 50.73446], [-0.49438, 50.73807], [-0.53031, 50.74276], [-0.56622, 50.74853], [-0.6021, 50.75538], [-0.63795, 50.76332], [-0.67377, 50.77233], [-0.70957, 50.78243], [-0.74534, 50.7936], [-0.78108, 50.80586], [-0.8168, 50.8192]]}, "properties": {"member": "Meeching", "head": "Chichester", "source": "TNA E 159/350 (Exchequer returns, 1565)"}}, {"type": "Feature", "geometry": {"type": "LineString", "coordinates": [[0.7525, 51.352], [0.77813, 51.3573], [0.80366, 51.36186], [0.8291, 51.36569], [0.85445, 51.36878], [0.8797, 51.37113], [0.90485, 51.37275], [0.92991, 51.37363], [0.95488, 51.37378], [0.97975, 51.37319], [1.00452, 51.37186], [1.0292, 51.3698], [1.05379, 51.367], [1.07828, 51.36347], [1.10267, 51.3592], [1.12697, 51.35419], [1.15118, 51.34845], [1.17529, 51.34197], [1.1993, 51.33475], [1.22322, 51.3268], [1.24705, 51.31811], [1.27078, 51.30869], [1.29441, 51.29853], [1.31795, 51.28763], [1.3414, 51.276]]}, "properties": {"member": "Milton", "head": "Sandwich", "source": "TNA E 159/350 (Exchequer returns, 1565)"}}, {"type": "Feature", "geometry": {"type": "LineString", "coordinates": [[-3.4771, 51.2146], [-3.45608, 51.21791], [-3.43516, 51.22063], [-3.41435, 51.22276], [-3.39364, 51.22429], [-3.37304, 51.22522], [-3.35255, 51.22556], [-3.33216, 51.22531], [-3.31187, 51.22447], [-3.2917, 51.22302], [-3.27162, 51.22099], [-3.25166, 51.21836], [-3.23179, 51.21514], [-3.21204, 51.21132], [-3.19239, 51.20691], [-3.17285, 51.2019], [-3.15341, 51.1963], [-3.13407, 51.1901], [-3.11485, 51.18331], [-3.09572, 51.17593], [-3.07671, 51.16795], [-3.0578, 51.15938], [-3.03899, 51.15022], [-3.02029, 51.14045], [-3.0017, 51.1301]]}, "properties": {"member": "Minehead", "head": "Bridgwater", "source": "TNA E 159/350 (Exchequer returns, 1565)"}}, {"type": "Feature", "geometry": {"type": "LineString", "coordinates": [[-1.2919, 50.7054], [-1.29926, 50.71176], [-1.30638, 50.71825], [-1.31326, 50.72489], [-1.31991, 50.73166], [-1.32631, 50.73857], [-1.33248, 50.74562], [-1.33841, 50.75281], [-1.3441, 50.76014], [-1.34955, 50.7676], [-1.35476, 50.7752], [-1.35974, 50.78295], [-1.36447, 50.79083], [-1.36897, 50.79885], [-1.37323, 50.80701], [-1.37725, 50.8153], [-1.38103, 50.82374], [-1.38457, 50.83231], [-1.38788, 50.84102], [-1.39095, 50.84987], [-1.39377, 50.85886], [-1.39636, 50.86799], [-1.39871, 50.87725], [-1.40083, 50.88666], [-1.4027, 50.8962]]}, "properties": {"member": "Newport, Isle of Wight", "head": "Southampton", "source": "TNA E 159/350 (Exchequer returns, 1565)"}}, {"type": "Feature", "geometry": {"type": "LineString", "coordinates": [[-4.939, 50.5404], [-4.92342, 50.53645], [-4.90809, 50.53213], [-4.89302, 50.52742], [-4.87819, 50.52233], [-4.86361, 50.51686], [-4.84928, 50.51101], [-4.8352, 50.50477], [-4.82137, 50.49816], [-4.8078, 50.49116], [-4.79447, 50.48379], [-4.78139, 50.47603], [-4.76856, 50.46789], [-4.75598, 50.45937], [-4.74365, 50.45047], [-4.73157, 50.44119], [-4.71974, 50.43153], [-4.70816, 50.42148], [-4.69683, 50.41106], [-4.68575, 50.40025], [-4.67492, 50.38906], [-4.66434, 50.37749], [-4.65401, 50.36554], [-4.64393, 50.35321], [-4.6341, 50.3405]]}, "properties": {"member": "Padstow", "head": "Fowey", "source": "TNA E 159/350 (Exchequer returns, 1565)"}}, {"type": "Feature", "geometry": {"type": "LineString", "coordinates": [[-5.0987, 50.1676], [-5.08183, 50.18148], [-5.06474, 50.19478], [-5.04743, 50.20751], [-5.02991, 50.21965], [-5.01217, 50.23121], [-4.99422, 50.24219], [-4.97605, 50.25258], [-4.95767, 50.2624], [-4.93906, 50.27164], [-4.92025, 50.28029], [-4.90121, 50.28837], [-4.88196, 50.29586], [-4.86249, 50.30278], [-4.84281, 50.30911], [-4.82291, 50.31486], [-4.8028, 50.32003], [-4.78247, 50.32463], [-4.76192, 50.32864], [-4.74116, 50.33206], [-4.72018, 50.33491], [-4.69898, 50.33718], [-4.67757, 50.33887], [-4.65594, 50.33997], [-4.6341, 50.3405]]}, "properties": {"member": "Penryn", "head": "Fowey", "source": "TNA E 159/350 (Exchequer returns, 1565)"}}, {"type": "Feature", "geometry": {"type": "LineString", "coordinates": [[-5.5328, 50.1212], [-5.49851, 50.14326], [-5.46394, 50.16419], [-5.4291, 50.184], [-5.39398, 50.20269], [-5.35859, 50.22025], [-5.32293, 50.23669], [-5.28699, 50.252], [-5.25078, 50.2662], [-5.21429, 50.27927], [-5.17753, 50.29121], [-5.1405, 50.30203], [-5.10319, 50.31173], [-5.0656, 50.32031], [-5.02775, 50.32776], [-4.98962, 50.33409], [-4.95121, 50.3393], [-4.91253, 50.34338], [-4.87358, 50.34634], [-4.83435, 50.34817], [-4.79485, 50.34889], [-4.75507, 50.34847], [-4.71502, 50.34694], [-4.6747, 50.34428], [-4.6341, 50.3405]]}, "properties": {"member": "Penzance", "head": "Fowey", "source": "TNA E 159/350 (Exchequer returns, 1565)"}}, {"type": "Feature", "geometry": {"type": "LineString", "coordinates": [[0.3274, 50.7909], [0.27932, 50.77563], [0.23127, 50.76179], [0.18326, 50.74938], [0.13528, 50.73841], [0.08734, 50.72886], [0.03944, 50.72074], [-0.00843, 50.71405], [-0.05626, 50.7088], [-0.10406, 50.70497], [-0.15183, 50.70257], [-0.19955, 50.70161], [-0.24725, 50.70207], [-0.2949, 50.70397], [-0.34253, 50.70729], [-0.39011, 50.71205], [-0.43766, 50.71823], [-0.48518, 50.72585], [-0.53266, 50.73489], [-0.58011, 50.74537], [-0.62752, 50.75727], [-0.67489, 50.77061], [-0.72223, 50.78538], [-0.76953, 50.80157], [-0.8168, 50.8192]]}, "properties": {"member": "Pevensey", "head": "Chichester", "source": "TNA E 159/350 (Exchequer returns, 1565)"}}, {"type": "Feature", "geometry": {"type": "LineString", "coordinates": [[-1.1104, 50.7927], [-1.12407, 50.79281], [-1.1376, 50.79329], [-1.15101, 50.79413], [-1.16429, 50.79534], [-1.17744, 50.79691], [-1.19046, 50.79884], [-1.20335, 50.80115], [-1.21611, 50.80382], [-1.22875, 50.80685], [-1.24125, 50.81025], [-1.25362, 50.81401], [-1.26586, 50.81814], [-1.27798, 50.82264], [-1.28996, 50.8275], [-1.30182, 50.83272], [-1.31355, 50.83832], [-1.32514, 50.84427], [-1.33661, 50.85059], [-1.34795, 50.85728], [-1.35916, 50.86434], [-1.37024, 50.87175], [-1.38119, 50.87954], [-1.39201, 50.88769], [-1.4027, 50.8962]]}, "properties": {"member": "Portsmouth", "head": "Southampton", "source": "TNA E 159/350 (Exchequer returns, 1565)"}}, {"type": "Feature", "geometry": {"type": "LineString", "coordinates": [[-3.4121, 54.3532], [-3.40109, 54.38271], [-3.3894, 54.41165], [-3.37701, 54.44002], [-3.36394, 54.46782], [-3.35017, 54.49506], [-3.33572, 54.52172], [-3.32058, 54.54782], [-3.30475, 54.57335], [-3.28822, 54.59831], [-3.27101, 54.62271], [-3.25311, 54.64654], [-3.23453, 54.6698], [-3.21525, 54.69249], [-3.19528, 54.71461], [-3.17462, 54.73616], [-3.15328, 54.75715], [-3.13124, 54.77757], [-3.10852, 54.79742], [-3.08511, 54.8167], [-3.061, 54.83542], [-3.03621, 54.85357], [-3.01073, 54.87115], [-2.98456, 54.88816], [-2.9577, 54.9046]]}, "properties": {"member": "Ravenglass", "head": "Carlisle", "source": "TNA E 159/350 (Exchequer returns, 1565)"}}, {"type": "Feature", "geometry": {"type": "LineString", "coordinates": [[0.5065, 51.3914], [0.54295, 51.39859], [0.57925, 51.40474], [0.61541, 51.40985], [0.65142, 51.41391], [0.68729, 51.41693], [0.72301, 51.41891], [0.7586, 51.41984], [0.79403, 51.41973], [0.82932, 51.41857], [0.86447, 51.41637], [0.89948, 51.41313], [0.93434, 51.40884], [0.96905, 51.40351], [1.00362, 51.39714], [1.03805, 51.38972], [1.07233, 51.38126], [1.10647, 51.37175], [1.14046, 51.36121], [1.17431, 51.34961], [1.20802, 51.33698], [1.24158, 51.3233], [1.275, 51.30858], [1.30827, 51.29281], [1.3414, 51.276]]}, "properties": {"member": "Rochester", "head": "Sandwich", "source": "TNA E 159/350 (Exchequer returns, 1565)"}}, {"type": "Feature", "geometry": {"type": "LineString", "coordinates": [[0.7609, 50.9385], [0.69688, 50.91085], [0.63271, 50.88517], [0.56838, 50.86147], [0.50391, 50.83973], [0.4393, 50.81997], [0.37453, 50.80218], [0.30961, 50.78636], [0.24454, 50.77252], [0.17933, 50.76064], [0.11396, 50.75074], [0.04845, 50.74281], [-0.01721, 50.73686], [-0.08303, 50.73287], [-0.14899, 50.73086], [-0.2151, 50.73082], [-0.28136, 50.73275], [-0.34776, 50.73665], [-0.41432, 50.74253], [-0.48103, 50.75038], [-0.54789, 50.7602], [-0.61489, 50.77199], [-0.68204, 50.78575], [-0.74935, 50.80149], [-0.8168, 50.8192]]}, "properties": {"member": "Rye", "head": "Chichester", "source": "TNA E 159/350 (Exchequer returns, 1565)"}}, {"type": "Feature", "geometry": {"type": "LineString", "coordinates": [[0.1942, 53.4183], [0.19166, 53.39646], [0.18856, 53.37488], [0.18489, 53.35358], [0.18067, 53.33255], [0.17588, 53.31178], [0.17053, 53.29129], [0.16462, 53.27107], [0.15814, 53.25111], [0.15111, 53.23143], [0.14351, 53.21202], [0.13535, 53.19287], [0.12662, 53.174], [0.11734, 53.1554], [0.10749, 53.13707], [0.09708, 53.119], [0.08611, 53.10121], [0.07458, 53.08369], [0.06248, 53.06644], [0.04982, 53.04946], [0.0366, 53.03275], [0.02282, 53.0163], [0.00848, 53.00013], [-0.00643, 52.98423], [-0.0219, 52.9686]]}, "properties": {"member": "Saltfleet", "head": "Boston", "source": "TNA E 159/350 (Exchequer returns, 1565)"}}, {"type": "Feature", "geometry": {"type": "LineString", "coordinates": [[-0.3897, 54.2841], [-0.3777, 54.26306], [-0.36637, 54.24189], [-0.35572, 54.22059], [-0.34574, 54.19917], [-0.33644, 54.17762], [-0.32782, 54.15594], [-0.31987, 54.13413], [-0.31259, 54.1122], [-0.30599, 54.09014], [-0.30007, 54.06796], [-0.29482, 54.04564], [-0.29024, 54.0232], [-0.28634, 54.00064], [-0.28312, 53.97794], [-0.28057, 53.95512], [-0.27869, 53.93217], [-0.27749, 53.90909], [-0.27697, 53.88589], [-0.27712, 53.86256], [-0.27794, 53.8391], [-0.27945, 53.81552], [-0.28162, 53.79181], [-0.28447, 53.76797], [-0.288, 53.744]]}, "properties": {"member": "Scarborough", "head": "Hull", "source": "TNA E 159/350 (Exchequer returns, 1565)"}}, {"type": "Feature", "geometry": {"type": "LineString", "coordinates": [[-0.2534, 50.8305], [-0.27671, 50.82193], [-0.30004, 50.81406], [-0.32338, 50.8069], [-0.34674, 50.80045], [-0.3701, 50.79469], [-0.39349, 50.78965], [-0.41688, 50.7853], [-0.4403, 50.78166], [-0.46372, 50.77873], [-0.48716, 50.77649], [-0.51062, 50.77497], [-0.53408, 50.77414], [-0.55757, 50.77403], [-0.58106, 50.77461], [-0.60457, 50.7759], [-0.6281, 50.77789], [-0.65163, 50.78059], [-0.67519, 50.784], [-0.69875, 50.7881], [-0.72234, 50.79291], [-0.74593, 50.79843], [-0.76954, 50.80465], [-0.79316, 50.81157], [-0.8168, 50.8192]]}, "properties": {"member": "Shoreham", "head": "Chichester", "source": "TNA E 159/350 (Exchequer returns, 1565)"}}, {"type": "Feature", "geometry": {"type": "LineString", "coordinates": [[-5.479, 50.2156], [-5.44559, 50.23295], [-5.41203, 50.24924], [-5.37831, 50.26448], [-5.34443, 50.27866], [-5.3104, 50.29179], [-5.27621, 50.30386], [-5.24186, 50.31487], [-5.20736, 50.32483], [-5.1727, 50.33373], [-5.13789, 50.34157], [-5.10292, 50.34836], [-5.06779, 50.35409], [-5.03251, 50.35877], [-4.99707, 50.36239], [-4.96148, 50.36495], [-4.92573, 50.36646], [-4.88982, 50.36691], [-4.85376, 50.36631], [-4.81754, 50.36465], [-4.78116, 50.36193], [-4.74463, 50.35816], [-4.70794, 50.35333], [-4.6711, 50.34744], [-4.6341, 50.3405]]}, "properties": {"member": "St Ives", "head": "Fowey", "source": "TNA E 159/350 (Exchequer returns, 1565)"}}, {"type": "Feature", "geometry": {"type": "LineString", "coordinates": [[-1.3113, 54.5611], [-1.32921, 54.57403], [-1.34661, 54.58733], [-1.36349, 54.60098], [-1.37986, 54.615], [-1.39572, 54.62937], [-1.41107, 54.64411], [-1.4259, 54.6592], [-1.44023, 54.67466], [-1.45404, 54.69048], [-1.46733, 54.70666], [-1.48012, 54.7232], [-1.49239, 54.74009], [-1.50415, 54.75735], [-1.5154, 54.77497], [-1.52614, 54.79295], [-1.53636, 54.81129], [-1.54607, 54.83], [-1.55527, 54.84906], [-1.56395, 54.86848], [-1.57213, 54.88826], [-1.57979, 54.90841], [-1.58694, 54.92891], [-1.59358, 54.94978], [-1.5997, 54.971]]}, "properties": {"member": "Stockton on Tees", "head": "Newcastle", "source": "TNA E 159/350 (Exchequer returns, 1565)"}}, {"type": "Feature", "geometry": {"type": "LineString", "coordinates": [[-1.3616, 54.9072], [-1.37244, 54.90644], [-1.3832, 54.90597], [-1.39387, 54.9058], [-1.40447, 54.90593], [-1.41499, 54.90635], [-1.42543, 54.90708], [-1.43579, 54.9081], [-1.44607, 54.90942], [-1.45627, 54.91104], [-1.46639, 54.91295], [-1.47643, 54.91516], [-1.48639, 54.91767], [-1.49627, 54.92048], [-1.50607, 54.92358], [-1.5158, 54.92699], [-1.52544, 54.93069], [-1.535, 54.93468], [-1.54448, 54.93898], [-1.55388, 54.94357], [-1.56321, 54.94846], [-1.57245, 54.95365], [-1.58161, 54.95914], [-1.5907, 54.96492], [-1.5997, 54.971]]}, "properties": {"member": "Sunderland", "head": "Newcastle", "source": "TNA E 159/350 (Exchequer returns, 1565)"}}, {"type": "Feature", "geometry": {"type": "LineString", "coordinates": [[-5.048, 50.2627], [-5.03187, 50.27189], [-5.01565, 50.28057], [-4.99933, 50.28872], [-4.98291, 50.29636], [-4.96639, 50.30348], [-4.94978, 50.31009], [-4.93307, 50.31618], [-4.91626, 50.32175], [-4.89935, 50.3268], [-4.88235, 50.33133], [-4.86525, 50.33535], [-4.84805, 50.33885], [-4.83076, 50.34183], [-4.81337, 50.3443], [-4.79588, 50.34625], [-4.77829, 50.34768], [-4.76061, 50.34859], [-4.74283, 50.34899], [-4.72495, 50.34887], [-4.70697, 50.34823], [-4.6889, 50.34707], [-4.67073, 50.3454], [-4.65246, 50.34321], [-4.6341, 50.3405]]}, "properties": {"member": "Truro", "head": "Fowey", "source": "TNA E 159/350 (Exchequer returns, 1565)"}}, {"type": "Feature", "geometry": {"type": "LineString", "coordinates": [[0.3198, 53.0963], [0.3074, 53.08607], [0.29484, 53.07626], [0.28212, 53.06688], [0.26923, 53.05793], [0.25619, 53.04941], [0.24299, 53.04131], [0.22964, 53.03364], [0.21612, 53.0264], [0.20244, 53.01958], [0.1886, 53.01319], [0.1746, 53.00723], [0.16044, 53.0017], [0.14613, 52.99659], [0.13165, 52.99191], [0.11701, 52.98766], [0.10222, 52.98383], [0.08726, 52.98043], [0.07214, 52.97746], [0.05687, 52.97492], [0.04143, 52.9728], [0.02584, 52.97111], [0.01009, 52.96984], [-0.00583, 52.96901], [-0.0219, 52.9686]]}, "properties": {"member": "Wainfleet Haven", "head": "Boston", "source": "TNA E 159/350 (Exchequer returns, 1565)"}}, {"type": "Feature", "geometry": {"type": "LineString", "coordinates": [[-2.4598, 50.6071], [-2.44167, 50.61825], [-2.4234, 50.62881], [-2.40501, 50.63879], [-2.38648, 50.64817], [-2.36783, 50.65696], [-2.34904, 50.66517], [-2.33012, 50.67279], [-2.31107, 50.67981], [-2.29188, 50.68625], [-2.27257, 50.6921], [-2.25313, 50.69736], [-2.23355, 50.70203], [-2.21384, 50.70611], [-2.194, 50.7096], [-2.17403, 50.7125], [-2.15393, 50.71481], [-2.1337, 50.71654], [-2.11334, 50.71767], [-2.09284, 50.71821], [-2.07222, 50.71817], [-2.05146, 50.71754], [-2.03057, 50.71631], [-2.00955, 50.7145], [-1.9884, 50.7121]]}, "properties": {"member": "Weymouth", "head": "Poole", "source": "TNA E 159/350 (Exchequer returns, 1565)"}}, {"type": "Feature", "geometry": {"type": "LineString", "coordinates": [[-0.6148, 54.4883], [-0.66278, 54.49425], [-0.71015, 54.50144], [-0.75692, 54.50986], [-0.80308, 54.51951], [-0.84865, 54.53038], [-0.89361, 54.54249], [-0.93796, 54.55584], [-0.98172, 54.57041], [-1.02487, 54.58621], [-1.06741, 54.60325], [-1.10935, 54.62151], [-1.15069, 54.64101], [-1.19143, 54.66174], [-1.23156, 54.6837], [-1.27109, 54.70689], [-1.31002, 54.73131], [-1.34834, 54.75696], [-1.38606, 54.78384], [-1.42317, 54.81196], [-1.45968, 54.8413], [-1.49559, 54.87188], [-1.5309, 54.90369], [-1.5656, 54.93673], [-1.5997, 54.971]]}, "properties": {"member": "Whitby", "head": "Newcastle", "source": "TNA E 159/350 (Exchequer returns, 1565)"}}, {"type": "Feature", "geometry": {"type": "LineString", "coordinates": [[-3.5929, 54.5499], [-3.57153, 54.57381], [-3.54972, 54.59693], [-3.52747, 54.61925], [-3.50477, 54.64078], [-3.48163, 54.66151], [-3.45804, 54.68145], [-3.43401, 54.7006], [-3.40954, 54.71895], [-3.38463, 54.73651], [-3.35927, 54.75327], [-3.33347, 54.76924], [-3.30722, 54.78442], [-3.28053, 54.7988], [-3.2534, 54.81239], [-3.22583, 54.82518], [-3.19781, 54.83718], [-3.16935, 54.84839], [-3.14044, 54.8588], [-3.11109, 54.86842], [-3.0813, 54.87724], [-3.05107, 54.88527], [-3.02039, 54.89251], [-2.98927, 54.89895], [-2.9577, 54.9046]]}, "properties": {"member": "Whitehaven", "head": "Carlisle", "source": "TNA E 159/350 (Exchequer returns, 1565)"}}, {"type": "Feature", "geometry": {"type": "LineString", "coordinates": [[0.7241, 50.9095], [0.66119, 50.88359], [0.59817, 50.8596], [0.53504, 50.83754], [0.4718, 50.81741], [0.40844, 50.7992], [0.34497, 50.78291], [0.28139, 50.76856], [0.21769, 50.75613], [0.15388, 50.74562], [0.08996, 50.73705], [0.02592, 50.73039], [-0.03822, 50.72567], [-0.10248, 50.72287], [-0.16686, 50.722], [-0.23134, 50.72305], [-0.29594, 50.72603], [-0.36065, 50.73093], [-0.42548, 50.73776], [-0.49042, 50.74652], [-0.55547, 50.7572], [-0.62063, 50.76981], [-0.68591, 50.78435], [-0.7513, 50.80081], [-0.8168, 50.8192]]}, "properties": {"member": "Winchelsea", "head": "Chichester", "source": "TNA E 159/350 (Exchequer returns, 1565)"}}, {"type": "Feature", "geometry": {"type": "LineString", "coordinates": [[1.322, 52.091], [1.33162, 52.1177], [1.34187, 52.14389], [1.35274, 52.16958], [1.36425, 52.19476], [1.37638, 52.21944], [1.38913, 52.24361], [1.40251, 52.26728], [1.41652, 52.29045], [1.43116, 52.3131], [1.44642, 52.33526], [1.46231, 52.35691], [1.47882, 52.37805], [1.49597, 52.39869], [1.51374, 52.41882], [1.53213, 52.43845], [1.55115, 52.45758], [1.5708, 52.4762], [1.59108, 52.49431], [1.61198, 52.51192], [1.63351, 52.52903], [1.65567, 52.54563], [1.67845, 52.56172], [1.70186, 52.57731], [1.7259, 52.5924]]}, "properties": {"member": "Woodbridge", "head": "Yarmouth, Great", "source": "TNA E 159/350 (Exchequer returns, 1565)"}}, {"type": "Feature", "geometry": {"type": "LineString", "coordinates": [[-3.5648, 54.6486], [-3.54318, 54.66799], [-3.52125, 54.68663], [-3.49899, 54.7045], [-3.47642, 54.72162], [-3.45352, 54.73798], [-3.4303, 54.75358], [-3.40677, 54.76842], [-3.38291, 54.7825], [-3.35874, 54.79582], [-3.33424, 54.80839], [-3.30943, 54.82019], [-3.28429, 54.83124], [-3.25883, 54.84153], [-3.23306, 54.85105], [-3.20696, 54.85982], [-3.18055, 54.86783], [-3.15381, 54.87509], [-3.12676, 54.88158], [-3.09938, 54.88731], [-3.07168, 54.89229], [-3.04367, 54.8965], [-3.01533, 54.89996], [-2.98668, 54.90266], [-2.9577, 54.9046]]}, "properties": {"member": "Workington", "head": "Carlisle", "source": "TNA E 159/350 (Exchequer returns, 1565)"}}]}