{
"type": "FeatureCollection",
"name": "gadd-customs-ports",
"crs": { "type": "name", "properties": { "name": "urn:ogc:def:crs:OGC:1.3:CRS84" } },
"features": [
{ "type": "Feature", "properties": { "earliest_surviving_pb": 1565, "head_port": false, "legal_quay_1566": true, "title": "Aldeburgh" }, "geometry": { "type": "Point", "coordinates": [ 1.6042, 52.1547 ] } },
{ "type": "Feature", "properties": { "earliest_surviving_pb": null, "head_port": false, "legal_quay_1566": true, "title": "Appledore" }, "geometry": { "type": "Point", "coordinates": [ -4.1919, 51.0536 ] } },
{ "type": "Feature", "properties": { "earliest_surviving_pb": 1565, "head_port": false, "legal_quay_1566": true, "title": "Arundel" }, "geometry": { "type": "Point", "coordinates": [ -0.5524, 50.8541 ] } },
{ "type": "Feature", "properties": { "earliest_surviving_pb": 1565, "head_port": true, "legal_quay_1566": true, "title": "Barnstaple" }, "geometry": { "type": "Point", "coordinates": [ -4.0652, 51.0804 ] } },
{ "type": "Feature", "properties": { "earliest_surviving_pb": 1565, "head_port": false, "legal_quay_1566": false, "title": "Beaumaris" }, "geometry": { "type": "Point", "coordinates": [ -4.0919, 53.2625 ] } },
{ "type": "Feature", "properties": { "earliest_surviving_pb": 1606, "head_port": true, "legal_quay_1566": false, "title": "Berwick upon Tweed" }, "geometry": { "type": "Point", "coordinates": [ -2.0104, 55.7648 ] } },
{ "type": "Feature", "properties": { "earliest_surviving_pb": 1686, "head_port": false, "legal_quay_1566": true, "title": "Bideford" }, "geometry": { "type": "Point", "coordinates": [ -4.2053, 51.0194 ] } },
{ "type": "Feature", "properties": { "earliest_surviving_pb": 1565, "head_port": false, "legal_quay_1566": false, "title": "Blakeney" }, "geometry": { "type": "Point", "coordinates": [ 1.0136, 52.9557 ] } },
{ "type": "Feature", "properties": { "earliest_surviving_pb": 1565, "head_port": true, "legal_quay_1566": true, "title": "Boston" }, "geometry": { "type": "Point", "coordinates": [ -0.0219, 52.9686 ] } },
{ "type": "Feature", "properties": { "earliest_surviving_pb": null, "head_port": false, "legal_quay_1566": true, "title": "Boustead Hill" }, "geometry": { "type": "Point", "coordinates": [ -3.1061, 54.9296 ] } },
{ "type": "Feature", "properties": { "earliest_surviving_pb": 1567, "head_port": true, "legal_quay_1566": true, "title": "Bridgwater" }, "geometry": { "type": "Point", "coordinates": [ -3.0017, 51.1301 ] } },
{ "type": "Feature", "properties": { "earliest_surviving_pb": 1613, "head_port": false, "legal_quay_1566": true, "title": "Bridlington" }, "geometry": { "type": "Point", "coordinates": [ -0.1892, 54.0814 ] } },
{ "type": "Feature", "properties": { "earliest_surviving_pb": 1565, "head_port": true, "legal_quay_1566": true, "title": "Bristol" }, "geometry": { "type": "Point", "coordinates": [ -2.6121, 51.4484 ] } },
{ "type": "Feature", "properties": { "earliest_surviving_pb": 1579, "head_port": true, "legal_quay_1566": false, "title": "Cardiff" }, "geometry": { "type": "Point", "coordinates": [ -3.1513, 51.4627 ] } },
{ "type": "Feature", "properties": { "earliest_surviving_pb": 1610, "head_port": true, "legal_quay_1566": true, "title": "Carlisle" }, "geometry": { "type": "Point", "coordinates": [ -2.9577, 54.9046 ] } },
{ "type": "Feature", "properties": { "earliest_surviving_pb": 1565, "head_port": false, "legal_quay_1566": false, "title": "Carmarthen" }, "geometry": { "type": "Point", "coordinates": [ -4.3077, 51.8552 ] } },
{ "type": "Feature", "properties": { "earliest_surviving_pb": 1565, "head_port": false, "legal_quay_1566": false, "title": "Caernarfon" }, "geometry": { "type": "Point", "coordinates": [ -4.276, 53.1448 ] } },
{ "type": "Feature", "properties": { "earliest_surviving_pb": 1579, "head_port": false, "legal_quay_1566": false, "title": "Chepstow" }, "geometry": { "type": "Point", "coordinates": [ -2.669, 51.639 ] } },
{ "type": "Feature", "properties": { "earliest_surviving_pb": 1565, "head_port": true, "legal_quay_1566": true, "title": "Chester" }, "geometry": { "type": "Point", "coordinates": [ -2.9285, 53.1809 ] } },
{ "type": "Feature", "properties": { "earliest_surviving_pb": 1566, "head_port": true, "legal_quay_1566": true, "title": "Chichester" }, "geometry": { "type": "Point", "coordinates": [ -0.8168, 50.8192 ] } },
{ "type": "Feature", "properties": { "earliest_surviving_pb": null, "head_port": false, "legal_quay_1566": true, "title": "Cley" }, "geometry": { "type": "Point", "coordinates": [ 1.0405, 52.9547 ] } },
{ "type": "Feature", "properties": { "earliest_surviving_pb": 1565, "head_port": false, "legal_quay_1566": true, "title": "Colchester" }, "geometry": { "type": "Point", "coordinates": [ 0.9404, 51.8708 ] } },
{ "type": "Feature", "properties": { "earliest_surviving_pb": 1565, "head_port": false, "legal_quay_1566": false, "title": "Conwy" }, "geometry": { "type": "Point", "coordinates": [ -3.8427, 53.2912 ] } },
{ "type": "Feature", "properties": { "earliest_surviving_pb": 1565, "head_port": false, "legal_quay_1566": true, "title": "Dartmouth" }, "geometry": { "type": "Point", "coordinates": [ -3.5774, 50.349 ] } },
{ "type": "Feature", "properties": { "earliest_surviving_pb": 1567, "head_port": false, "legal_quay_1566": true, "title": "Dover" }, "geometry": { "type": "Point", "coordinates": [ 1.3252, 51.1296 ] } },
{ "type": "Feature", "properties": { "earliest_surviving_pb": 1565, "head_port": false, "legal_quay_1566": true, "title": "Dunwich" }, "geometry": { "type": "Point", "coordinates": [ 1.6324, 52.2787 ] } },
{ "type": "Feature", "properties": { "earliest_surviving_pb": null, "head_port": false, "legal_quay_1566": true, "title": "Maryport" }, "geometry": { "type": "Point", "coordinates": [ -3.5009, 54.7134 ] } },
{ "type": "Feature", "properties": { "earliest_surviving_pb": 1565, "head_port": true, "legal_quay_1566": true, "title": "Exeter" }, "geometry": { "type": "Point", "coordinates": [ -3.5313, 50.7184 ] } },
{ "type": "Feature", "properties": { "earliest_surviving_pb": 1565, "head_port": false, "legal_quay_1566": true, "title": "Faversham" }, "geometry": { "type": "Point", "coordinates": [ 0.8941, 51.336 ] } },
{ "type": "Feature", "properties": { "earliest_surviving_pb": null, "head_port": false, "legal_quay_1566": true, "title": "Filey" }, "geometry": { "type": "Point", "coordinates": [ -0.2841, 54.2096 ] } },
{ "type": "Feature", "properties": { "earliest_surviving_pb": null, "head_port": false, "legal_quay_1566": true, "title": "Flamborough" }, "geometry": { "type": "Point", "coordinates": [ -0.1178, 54.1033 ] } },
{ "type": "Feature", "properties": { "earliest_surviving_pb": 1568, "head_port": false, "legal_quay_1566": true, "title": "Folkestone" }, "geometry": { "type": "Point", "coordinates": [ 1.1867, 51.0788 ] } },
{ "type": "Feature", "properties": { "earliest_surviving_pb": 1565, "head_port": false, "legal_quay_1566": true, "title": "Fowey" }, "geometry": { "type": "Point", "coordinates": [ -4.6341, 50.3405 ] } },
{ "type": "Feature", "properties": { "earliest_surviving_pb": 1575, "head_port": true, "legal_quay_1566": false, "title": "Gloucester" }, "geometry": { "type": "Point", "coordinates": [ -2.252, 51.863 ] } },
{ "type": "Feature", "properties": { "earliest_surviving_pb": 1565, "head_port": false, "legal_quay_1566": false, "title": "Grimsby" }, "geometry": { "type": "Point", "coordinates": [ -0.0751, 53.5781 ] } },
{ "type": "Feature", "properties": { "earliest_surviving_pb": 1579, "head_port": false, "legal_quay_1566": true, "title": "Hartlepool" }, "geometry": { "type": "Point", "coordinates": [ -1.2072, 54.6999 ] } },
{ "type": "Feature", "properties": { "earliest_surviving_pb": 1566, "head_port": false, "legal_quay_1566": true, "title": "Hastings" }, "geometry": { "type": "Point", "coordinates": [ 0.5729, 50.8524 ] } },
{ "type": "Feature", "properties": { "earliest_surviving_pb": 1565, "head_port": false, "legal_quay_1566": true, "title": "Helston" }, "geometry": { "type": "Point", "coordinates": [ -5.2769, 50.1005 ] } },
{ "type": "Feature", "properties": { "earliest_surviving_pb": 1565, "head_port": true, "legal_quay_1566": true, "title": "Hull" }, "geometry": { "type": "Point", "coordinates": [ -0.288, 53.744 ] } },
{ "type": "Feature", "properties": { "earliest_surviving_pb": 1565, "head_port": false, "legal_quay_1566": true, "title": "Hythe" }, "geometry": { "type": "Point", "coordinates": [ 1.0804, 51.0649 ] } },
{ "type": "Feature", "properties": { "earliest_surviving_pb": 1565, "head_port": false, "legal_quay_1566": true, "title": "Ilfracombe" }, "geometry": { "type": "Point", "coordinates": [ -4.116, 51.2091 ] } },
{ "type": "Feature", "properties": { "earliest_surviving_pb": 1565, "head_port": true, "legal_quay_1566": true, "title": "Ipswich" }, "geometry": { "type": "Point", "coordinates": [ 1.1529, 52.0526 ] } },
{ "type": "Feature", "properties": { "earliest_surviving_pb": 1565, "head_port": true, "legal_quay_1566": true, "title": "Kings Lynn" }, "geometry": { "type": "Point", "coordinates": [ 0.392, 52.7597 ] } },
{ "type": "Feature", "properties": { "earliest_surviving_pb": 1579, "head_port": false, "legal_quay_1566": false, "title": "Lancaster" }, "geometry": { "type": "Point", "coordinates": [ -2.8124, 54.0544 ] } },
{ "type": "Feature", "properties": { "earliest_surviving_pb": 1565, "head_port": false, "legal_quay_1566": true, "title": "Lewes" }, "geometry": { "type": "Point", "coordinates": [ 0.0156, 50.8739 ] } },
{ "type": "Feature", "properties": { "earliest_surviving_pb": 1565, "head_port": false, "legal_quay_1566": false, "title": "Liverpool" }, "geometry": { "type": "Point", "coordinates": [ -2.9897, 53.4021 ] } },
{ "type": "Feature", "properties": { "earliest_surviving_pb": 1565, "head_port": true, "legal_quay_1566": true, "title": "London" }, "geometry": { "type": "Point", "coordinates": [ -0.1239, 51.5074 ] } },
{ "type": "Feature", "properties": { "earliest_surviving_pb": 1565, "head_port": false, "legal_quay_1566": false, "title": "Looe" }, "geometry": { "type": "Point", "coordinates": [ -4.455, 50.3562 ] } },
{ "type": "Feature", "properties": { "earliest_surviving_pb": null, "head_port": false, "legal_quay_1566": true, "title": "Lulworth" }, "geometry": { "type": "Point", "coordinates": [ -2.2471, 50.6181 ] } },
{ "type": "Feature", "properties": { "earliest_surviving_pb": 1565, "head_port": false, "legal_quay_1566": true, "title": "Lyme Regis" }, "geometry": { "type": "Point", "coordinates": [ -2.9394, 50.7201 ] } },
{ "type": "Feature", "properties": { "earliest_surviving_pb": 1568, "head_port": false, "legal_quay_1566": false, "title": "Maldon" }, "geometry": { "type": "Point", "coordinates": [ 0.6851, 51.7321 ] } },
{ "type": "Feature", "properties": { "earliest_surviving_pb": 1565, "head_port": false, "legal_quay_1566": true, "title": "Meeching" }, "geometry": { "type": "Point", "coordinates": [ 0.0479, 50.7974 ] } },
{ "type": "Feature", "properties": { "earliest_surviving_pb": 1565, "head_port": true, "legal_quay_1566": false, "title": "Milford Haven" }, "geometry": { "type": "Point", "coordinates": [ -5.044, 51.7129 ] } },
{ "type": "Feature", "properties": { "earliest_surviving_pb": 1568, "head_port": false, "legal_quay_1566": true, "title": "Milton" }, "geometry": { "type": "Point", "coordinates": [ 0.7525, 51.352 ] } },
{ "type": "Feature", "properties": { "earliest_surviving_pb": 1566, "head_port": false, "legal_quay_1566": true, "title": "Minehead" }, "geometry": { "type": "Point", "coordinates": [ -3.4771, 51.2146 ] } },
{ "type": "Feature", "properties": { "earliest_surviving_pb": 1593, "head_port": true, "legal_quay_1566": true, "title": "Newcastle" }, "geometry": { "type": "Point", "coordinates": [ -1.5997, 54.971 ] } },
{ "type": "Feature", "properties": { "earliest_surviving_pb": null, "head_port": false, "legal_quay_1566": true, "title": "Newport, Isle of Wight" }, "geometry": { "type": "Point", "coordinates": [ -1.2919, 50.7054 ] } },
{ "type": "Feature", "properties": { "earliest_surviving_pb": 1565, "head_port": false, "legal_quay_1566": true, "title": "Padstow" }, "geometry": { "type": "Point", "coordinates": [ -4.939, 50.5404 ] } },
{ "type": "Feature", "properties": { "earliest_surviving_pb": 1565, "head_port": false, "legal_quay_1566": true, "title": "Penryn" }, "geometry": { "type": "Point", "coordinates": [ -5.0987, 50.1676 ] } },
{ "type": "Feature", "properties": { "earliest_surviving_pb": 1565, "head_port": false, "legal_quay_1566": true, "title": "Penzance" }, "geometry": { "type": "Point", "coordinates": [ -5.5328, 50.1212 ] } },
{ "type": "Feature", "properties": { "earliest_surviving_pb": 1565, "head_port": false, "legal_quay_1566": true, "title": "Pevensey" }, "geometry": { "type": "Point", "coordinates": [ 0.3274, 50.7909 ] } },
{ "type": "Feature", "properties": { "earliest_surviving_pb": 1565, "head_port": true, "legal_quay_1566": true, "title": "Plymouth" }, "geometry": { "type": "Point", "coordinates": [ -4.1351, 50.3697 ] } },
{ "type": "Feature", "properties": { "earliest_surviving_pb": 1565, "head_port": true, "legal_quay_1566": true, "title": "Poole" }, "geometry": { "type": "Point", "coordinates": [ -1.9884, 50.7121 ] } },
{ "type": "Feature", "properties": { "earliest_surviving_pb": 1612, "head_port": false, "legal_quay_1566": true, "title": "Portsmouth" }, "geometry": { "type": "Point", "coordinates": [ -1.1104, 50.7927 ] } },
{ "type": "Feature", "properties": { "earliest_surviving_pb": null, "head_port": false, "legal_quay_1566": true, "title": "Ravenglass" }, "geometry": { "type": "Point", "coordinates": [ -3.4121, 54.3532 ] } },
{ "type": "Feature", "properties": { "earliest_surviving_pb": 1565, "head_port": false, "legal_quay_1566": true, "title": "Rochester" }, "geometry": { "type": "Point", "coordinates": [ 0.5065, 51.3914 ] } },
{ "type": "Feature", "properties": { "earliest_surviving_pb": 1565, "head_port": false, "legal_quay_1566": true, "title": "Romney" }, "geometry": { "type": "Point", "coordinates": [ 0.9736, 50.9807 ] } },
{ "type": "Feature", "properties": { "earliest_surviving_pb": 1566, "head_port": false, "legal_quay_1566": true, "title": "Rye" }, "geometry": { "type": "Point", "coordinates": [ 0.7609, 50.9385 ] } },
{ "type": "Feature", "properties": { "earliest_surviving_pb": null, "head_port": false, "legal_quay_1566": true, "title": "Saltfleet" }, "geometry": { "type": "Point", "coordinates": [ 0.1942, 53.4183 ] } },
{ "type": "Feature", "properties": { "earliest_surviving_pb": 1568, "head_port": true, "legal_quay_1566": true, "title": "Sandwich" }, "geometry": { "type": "Point", "coordinates": [ 1.3414, 51.276 ] } },
{ "type": "Feature", "properties": { "earliest_surviving_pb": 1565, "head_port": false, "legal_quay_1566": true, "title": "Scarborough" }, "geometry": { "type": "Point", "coordinates": [ -0.3897, 54.2841 ] } },
{ "type": "Feature", "properties": { "earliest_surviving_pb": 1565, "head_port": false, "legal_quay_1566": true, "title": "Shoreham" }, "geometry": { "type": "Point", "coordinates": [ -0.2534, 50.8305 ] } },
{ "type": "Feature", "properties": { "earliest_surviving_pb": 1565, "head_port": true, "legal_quay_1566": true, "title": "Southampton" }, "geometry": { "type": "Point", "coordinates": [ -1.4027, 50.8962 ] } },
{ "type": "Feature", "properties": { "earliest_surviving_pb": 1675, "head_port": false, "legal_quay_1566": false, "title": "Spalding" }, "geometry": { "type": "Point", "coordinates": [ -0.1359, 52.8004 ] } },
{ "type": "Feature", "properties": { "earliest_surviving_pb": 1565, "head_port": false, "legal_quay_1566": true, "title": "St Ives" }, "geometry": { "type": "Point", "coordinates": [ -5.479, 50.2156 ] } },
{ "type": "Feature", "properties": { "earliest_surviving_pb": 1615, "head_port": false, "legal_quay_1566": false, "title": "Stockton on Tees" }, "geometry": { "type": "Point", "coordinates": [ -1.3113, 54.5611 ] } },
{ "type": "Feature", "properties": { "earliest_surviving_pb": 1611, "head_port": false, "legal_quay_1566": false, "title": "Sunderland" }, "geometry": { "type": "Point", "coordinates": [ -1.3616, 54.9072 ] } },
{ "type": "Feature", "properties": { "earliest_surviving_pb": 1579, "head_port": false, "legal_quay_1566": false, "title": "Swansea" }, "geometry": { "type": "Point", "coordinates": [ -3.9194, 51.6165 ] } },
{ "type": "Feature", "properties": { "earliest_surviving_pb": 1565, "head_port": false, "legal_quay_1566": true, "title": "Truro" }, "geometry": { "type": "Point", "coordinates": [ -5.048, 50.2627 ] } },
{ "type": "Feature", "properties": { "earliest_surviving_pb": null, "head_port": false, "legal_quay_1566": true, "title": "Wainfleet Haven" }, "geometry": { "type": "Point", "coordinates": [ 0.3198, 53.0963 ] } },
{ "type": "Feature", "properties": { "earliest_surviving_pb": 1565, "head_port": false, "legal_quay_1566": true, "title": "Weymouth" }, "geometry": { "type": "Point", "coordinates": [ -2.4598, 50.6071 ] } },
{ "type": "Feature", "properties": { "earliest_surviving_pb": 1592, "head_port": false, "legal_quay_1566": true, "title": "Whitby" }, "geometry": { "type": "Point", "coordinates": [ -0.6148, 54.4883 ] } },
{ "type": "Feature", "properties": { "earliest_surviving_pb": 1687, "head_port": false, "legal_quay_1566": true, "title": "Whitehaven" }, "geometry": { "type": "Point", "coordinates": [ -3.5929, 54.5499 ] } },
{ "type": "Feature", "properties": { "earliest_surviving_pb": 1565, "head_port": false, "legal_quay_1566": true, "title": "Winchelsea" }, "geometry": { "type": "Point", "coordinates": [ 0.7241, 50.9095 ] } },
{ "type": "Feature", "properties": { "earliest_surviving_pb": 1566, "head_port": false, "legal_quay_1566": true, "title": "Woodbridge" }, "geometry": { "type": "Point", "coordinates": [ 1.322, 52.091 ] } },
{ "type": "Feature", "properties": { "earliest_surviving_pb": null, "head_port": false, "legal_quay_1566": true, "title": "Workington" }, "geometry": { "type": "Point", "coordinates": [ -3.5648, 54.6486 ] } },
{ "type": "Feature", "properties": { "earliest_surviving_pb": 1566, "head_port": true, "legal_quay_1566": true, "title": "Yarmouth, Great" }, "geometry": { "type": "Point", "coordinates": [ 1.7259, 52.5924 ] } }
]
}
